{"type": "FeatureCollection", "name": "bike_sharing", "crs": null, "features": [{"type": "Feature", "properties": {"id": 20, "fumetto": "ZUFFO 2 - VIA DOS TRENTO", "desc": "ZUFFO 2 - VIA DOS TRENTO", "cicloposteggi": 12, "tipologia": "linea"}, "geometry": {"type": "Point", "coordinates": [11.109654066805884, 46.0752301804651]}}, {"type": "Feature", "properties": {"id": 30, "fumetto": "PIEDICASTELLO in piazza di Piedicastello nel giardino Andrea Hofler", "desc": "PIEDICASTELLO in piazza di Piedicastello nel giardino Andrea Hofler", "cicloposteggi": 12, "tipologia": "linea"}, "geometry": {"type": "Point", "coordinates": [11.113676474039195, 46.07121118029746]}}, {"type": "Feature", "properties": {"id": 6, "fumetto": "STAZIONE AUTOCORRIERE via Pozzo/via Torre Vanga", "desc": "STAZIONE AUTOCORRIERE via Pozzo/via Torre Vanga", "cicloposteggi": 22, "tipologia": "linea"}, "geometry": {"type": "Point", "coordinates": [11.120214548510372, 46.07020694567349]}}, {"type": "Feature", "properties": {"id": 2, "fumetto": "TOP CENTER", "desc": "TOP CENTER", "cicloposteggi": 24, "tipologia": "linea"}, "geometry": {"type": "Point", "coordinates": [11.118512916527719, 46.09019103498242]}}, {"type": "Feature", "properties": {"id": 1, "fumetto": "BREN CENTER via Guardini", "desc": "BREN CENTER via Guardini", "cicloposteggi": 18, "tipologia": "linea"}, "geometry": {"type": "Point", "coordinates": [11.117695823818927, 46.094802474671575]}}, {"type": "Feature", "properties": {"id": 3, "fumetto": "PIAZZA DI CENTA", "desc": "PIAZZA DI CENTA", "cicloposteggi": 12, "tipologia": "vis a vis"}, "geometry": {"type": "Point", "coordinates": [11.123877912088993, 46.075361505895096]}}, {"type": "Feature", "properties": {"id": 12, "fumetto": "AZIENDA SANITARIA via Degasperi", "desc": "AZIENDA SANITARIA via Degasperi", "cicloposteggi": 18, "tipologia": "linea"}, "geometry": {"type": "Point", "coordinates": [11.128196525608127, 46.04439110727468]}}, {"type": "Feature", "properties": {"id": 41, "fumetto": "MATTARELLO - piazza Q. PERINI", "desc": "MATTARELLO - piazza Q. PERINI", "cicloposteggi": 6, "tipologia": "vis a vis"}, "geometry": {"type": "Point", "coordinates": [11.128372864253167, 46.006988126667075]}}, {"type": "Feature", "properties": {"id": 10, "fumetto": "PISCINA via Fogazzaro/via Gocciadoro", "desc": "PISCINA via Fogazzaro/via Gocciadoro", "cicloposteggi": 12, "tipologia": "linea"}, "geometry": {"type": "Point", "coordinates": [11.130925018163383, 46.05629700130151]}}, {"type": "Feature", "properties": {"id": 9, "fumetto": "CENTRO S. CHIARA via S. Croce", "desc": "CENTRO S. CHIARA via S. Croce", "cicloposteggi": 18, "tipologia": "vis a vis"}, "geometry": {"type": "Point", "coordinates": [11.123877725882748, 46.063410331615806]}}, {"type": "Feature", "properties": {"id": 8, "fumetto": "UNIVERSITA' via Rosmini", "desc": "UNIVERSITA' via Rosmini", "cicloposteggi": 18, "tipologia": "linea"}, "geometry": {"type": "Point", "coordinates": [11.119004243724074, 46.066341340282705]}}, {"type": "Feature", "properties": {"id": 7, "fumetto": "BIBLIOTECA via Torre Vanga/via Alfieri", "desc": "BIBLIOTECA via Torre Vanga/via Alfieri", "cicloposteggi": 24, "tipologia": "vis a vis"}, "geometry": {"type": "Point", "coordinates": [11.121281565473975, 46.070441866114]}}, {"type": "Feature", "properties": {"id": 4, "fumetto": "PIAZZA VENEZIA", "desc": "PIAZZA VENEZIA", "cicloposteggi": 24, "tipologia": "linea"}, "geometry": {"type": "Point", "coordinates": [11.12699208338962, 46.067599315118855]}}, {"type": "Feature", "properties": {"id": 15, "fumetto": "MUSE corso del Lavoro e della Scienza", "desc": "MUSE corso del Lavoro e della Scienza", "cicloposteggi": 12, "tipologia": "linea"}, "geometry": {"type": "Point", "coordinates": [11.11578757163887, 46.061521703557]}}, {"type": "Feature", "properties": {"id": 17, "fumetto": "CENTRO SPORTIVO GARDOLO via IV Novembre", "desc": "CENTRO SPORTIVO GARDOLO via IV Novembre", "cicloposteggi": 12, "tipologia": "vis a vis"}, "geometry": {"type": "Point", "coordinates": [11.112906640519038, 46.104499807516774]}}, {"type": "Feature", "properties": {"id": 16, "fumetto": "VIA BEZZI angolo via Vittorio Veneto", "desc": "VIA BEZZI angolo via Vittorio Veneto", "cicloposteggi": 9, "tipologia": "linea"}, "geometry": {"type": "Point", "coordinates": [11.119305630112668, 46.0581238905146]}}, {"type": "Feature", "properties": {"id": 11, "fumetto": "STAZIONE FF.SS. - OSPEDALE via Gocciadoro/Staz. S. Chiara", "desc": "STAZIONE FF.SS. - OSPEDALE via Gocciadoro/Staz. S. Chiara", "cicloposteggi": 12, "tipologia": "vis a vis"}, "geometry": {"type": "Point", "coordinates": [11.135553194510209, 46.05444764059214]}}, {"type": "Feature", "properties": {"id": 19, "fumetto": "VIA MADRUZZO", "desc": "VIA MADRUZZO", "cicloposteggi": 10, "tipologia": "vis a vis"}, "geometry": {"type": "Point", "coordinates": [11.119276682127463, 46.063636907776825]}}, {"type": "Feature", "properties": {"id": 13, "fumetto": "LIDORNO - via Lidorno/park Trento sud", "desc": "LIDORNO - via Lidorno/park Trento sud", "cicloposteggi": 8, "tipologia": "vis a vis"}, "geometry": {"type": "Point", "coordinates": [11.126337307295472, 46.0332248558614]}}, {"type": "Feature", "properties": {"id": 18, "fumetto": "VIA VANNETTI (sede PAT)", "desc": "VIA VANNETTI (sede PAT)", "cicloposteggi": 8, "tipologia": "linea"}, "geometry": {"type": "Point", "coordinates": [11.121743987464642, 46.072819601693745]}}, {"type": "Feature", "properties": {"id": 21, "fumetto": "EX ATESINA - LIDL via Del Brennero", "desc": "EX ATESINA - LIDL via Del Brennero", "cicloposteggi": 12, "tipologia": "linea"}, "geometry": {"type": "Point", "coordinates": [11.119505060921119, 46.08385094842844]}}, {"type": "Feature", "properties": {"id": 22, "fumetto": "CAMPO CONI corso degli Alpini", "desc": "CAMPO CONI corso degli Alpini", "cicloposteggi": 12, "tipologia": "linea"}, "geometry": {"type": "Point", "coordinates": [11.11765313482348, 46.07978345436893]}}, {"type": "Feature", "properties": {"id": 23, "fumetto": "STUDENTATO MAYER corso Buonarroti", "desc": "STUDENTATO MAYER corso Buonarroti", "cicloposteggi": 12, "tipologia": "linea"}, "geometry": {"type": "Point", "coordinates": [11.11801158417033, 46.07321505739335]}}, {"type": "Feature", "properties": {"id": 24, "fumetto": "VERONA viale Verona/via Olmi", "desc": "VERONA viale Verona/via Olmi", "cicloposteggi": 12, "tipologia": "linea"}, "geometry": {"type": "Point", "coordinates": [11.131353929830524, 46.049373575293664]}}, {"type": "Feature", "properties": {"id": 25, "fumetto": "CLARINA incrocio via Degasperi - via Anna Frank", "desc": "CLARINA incrocio via Degasperi - via Anna Frank", "cicloposteggi": 12, "tipologia": "linea"}, "geometry": {"type": "Point", "coordinates": [11.124016756433242, 46.050791981416374]}}, {"type": "Feature", "properties": {"id": 26, "fumetto": "BARBACOVI nei pressi dell'incrocio via Barbacovi-via Brigata Acqui", "desc": "BARBACOVI nei pressi dell'incrocio via Barbacovi-via Brigata Acqui", "cicloposteggi": 12, "tipologia": "linea"}, "geometry": {"type": "Point", "coordinates": [11.127728283570516, 46.06510018953078]}}, {"type": "Feature", "properties": {"id": 27, "fumetto": "GARDOLO-EX SEGHERIA via Feininger/piazzale Groff", "desc": "GARDOLO-EX SEGHERIA via Feininger/piazzale Groff", "cicloposteggi": 6, "tipologia": "linea"}, "geometry": {"type": "Point", "coordinates": [11.111922777646994, 46.10761627274372]}}, {"type": "Feature", "properties": {"id": 28, "fumetto": "MACCANI via Maccani/Comando di Polizia Locale", "desc": "MACCANI via Maccani/Comando di Polizia Locale", "cicloposteggi": 12, "tipologia": "vis a vis"}, "geometry": {"type": "Point", "coordinates": [11.108933401980616, 46.090620479736906]}}, {"type": "Feature", "properties": {"id": 29, "fumetto": "CANOVA nel parcheggio del centro sportivo in via Paludi", "desc": "CANOVA nel parcheggio del centro sportivo in via Paludi", "cicloposteggi": 12, "tipologia": "vis a vis"}, "geometry": {"type": "Point", "coordinates": [11.109386384832739, 46.09913840964735]}}, {"type": "Feature", "properties": {"id": 38, "fumetto": "PIEDICASTELLO EX ITALCEMENTI via Lungadige S. Nicol\u00f2", "desc": "PIEDICASTELLO EX ITALCEMENTI via Lungadige S. Nicol\u00f2", "cicloposteggi": 12, "tipologia": "linea"}, "geometry": {"type": "Point", "coordinates": [11.113680084390362, 46.069469670628735]}}, {"type": "Feature", "properties": {"id": 35, "fumetto": "PALATRENTO via Fersina/via Bartali", "desc": "PALATRENTO via Fersina/via Bartali", "cicloposteggi": 12, "tipologia": "linea"}, "geometry": {"type": "Point", "coordinates": [11.12385738541206, 46.040462503020485]}}, {"type": "Feature", "properties": {"id": 36, "fumetto": "RONCAFORT via Caneppele", "desc": "RONCAFORT via Caneppele", "cicloposteggi": 12, "tipologia": "linea"}, "geometry": {"type": "Point", "coordinates": [11.101816602453527, 46.100110981089735]}}, {"type": "Feature", "properties": {"id": 32, "fumetto": "MADONNA BIANCA via Menguzzato / viale Verona", "desc": "VIA MENGUZZATO presso l'intersezione con viale Verona", "cicloposteggi": 12, "tipologia": "linea"}, "geometry": {"type": "Point", "coordinates": [11.131450241839946, 46.042464433162046]}}, {"type": "Feature", "properties": {"id": 34, "fumetto": "OSPEDALE S. CHIARA Largo Medaglie d'Oro", "desc": "OSPEDALE S. CHIARA Largo Medaglie d'Oro", "cicloposteggi": 9, "tipologia": "linea"}, "geometry": {"type": "Point", "coordinates": [11.132695783870558, 46.05758003788703]}}, {"type": "Feature", "properties": {"id": 31, "fumetto": "STAZIONE FF.SS. VILLAZZANO - via Asiago", "desc": "STAZIONE FF.SS. VILLAZZANO - via Asiago", "cicloposteggi": 12, "tipologia": "linea"}, "geometry": {"type": "Point", "coordinates": [11.13944943007898, 46.044257309011996]}}, {"type": "Feature", "properties": {"id": 33, "fumetto": "GORIZIA via Gorizi/via Vicenza", "desc": "GORIZIA via Gorizi/via Vicenza", "cicloposteggi": 12, "tipologia": "linea"}, "geometry": {"type": "Point", "coordinates": [11.133325827918094, 46.06205874933742]}}, {"type": "Feature", "properties": {"id": 37, "fumetto": "CIMITERO VILLAZZANO via Valnigra", "desc": "CIMITERO VILLAZZANO via Valnigra", "cicloposteggi": 12, "tipologia": "linea"}, "geometry": {"type": "Point", "coordinates": [11.144872724824282, 46.05112550137362]}}, {"type": "Feature", "properties": {"id": 39, "fumetto": "PONTE DEI CAVALLEGGERI viale Rovereto / viale Verona", "desc": "PONTE DEI CAVALLEGGERI viale Rovereto / viale Verona", "cicloposteggi": 6, "tipologia": "linea"}, "geometry": {"type": "Point", "coordinates": [11.127166260652205, 46.0590283958611]}}, {"type": "Feature", "properties": {"id": 40, "fumetto": "STUDENTATO SAN BARTOLAMEO via della Malpensada", "desc": "STUDENTATO SAN BARTOLAMEO via della Malpensada", "cicloposteggi": 12, "tipologia": "linea"}, "geometry": {"type": "Point", "coordinates": [11.13370794080805, 46.048198290459496]}}]}