{"type": "FeatureCollection", "name": "car_sharing", "crs": null, "features": [{"type": "Feature", "properties": {"via": "via Soteri (nel parcheggio in prossimit\u00e0 del parco pubblico denominato Giardino Mattia Giosafat)", "auto": 1, "ordinanza": "n\u00b0 4_2016"}, "geometry": {"type": "Point", "coordinates": [11.121391883127293, 46.086294399435225]}}, {"type": "Feature", "properties": {"via": "corso del Lavoro e della Scienza (sul lato est della strada  in prossimit\u00e0del MUSE)", "auto": 1, "ordinanza": "n\u00b0810-2013"}, "geometry": {"type": "Point", "coordinates": [11.115686978666925, 46.062282404967824]}}, {"type": "Feature", "properties": {"via": "via S. Croce (sul lato destro della strada tra la Cassa Rurale e il Ristorante Pedavena)", "auto": 1, "ordinanza": "n\u00b0571-2010"}, "geometry": {"type": "Point", "coordinates": [11.123294999999999, 46.06469299999999]}}, {"type": "Feature", "properties": {"via": "Piazza Dante (sul lato sinistro della strada vicino all\u2019accesso al Parco di fronte al Palazzo della Regione)", "auto": 1, "ordinanza": "n\u00b0924-2011"}, "geometry": {"type": "Point", "coordinates": [11.121278067245191, 46.07113258467703]}}, {"type": "Feature", "properties": {"via": "piazza Venezia (zona Port'Aquila-in prossimit\u00e0 dei civici 37-40)", "auto": 1, "ordinanza": "n\u00b0571-2010"}, "geometry": {"type": "Point", "coordinates": [11.127661, 46.06952100000001]}}, {"type": "Feature", "properties": {"via": "piazza Dante (sul lato sinistro della strada vicino all\u2019accesso al Parco di fronte al Palazzo della Regione)", "auto": 1, "ordinanza": "n\u00b0571-2010"}, "geometry": {"type": "Point", "coordinates": [11.121273, 46.071149999999996]}}, {"type": "Feature", "properties": {"via": "via Gocciadoro (nel parcheggio posto tra la Piscina Fogazzaro e l\u2019Ospedale, di fianco al Ristorante Loto)", "auto": 1, "ordinanza": "n\u00b0 4_2016"}, "geometry": {"type": "Point", "coordinates": [11.13127632248244, 46.056133852309614]}}, {"type": "Feature", "properties": {"via": "via dei Rivi (sul lato ovest, in prossimit\u00e0 dell'intersezione con via Dallafior)", "auto": 1, "ordinanza": "n\u00b01088-2014"}, "geometry": {"type": "Point", "coordinates": [11.154307004744352, 46.06546509160277]}}]}