{"type": "FeatureCollection", "name": "patti", "crs": null, "features": [{"type": "Feature", "properties": {"id": 14, "descr": "Murale Gardolo-Canova. Abbellimento del sottopasso di via Soprasasso", "fumetto": "Murale Gardolo-Canova. Abbellimento del sottopasso di via Soprasasso", "link": "http://www.comune.trento.it/Aree-tematiche/Beni-comuni/Patti-di-collaborazione-e-adesioni/Patto-di-collaborazione-Murale-Gardolo-Canova"}, "geometry": {"type": "Point", "coordinates": [11.109277452374615, 46.106217217803064]}}, {"type": "Feature", "properties": {"id": 12, "descr": "Una poesia di strada", "fumetto": "Una poesia di strada", "link": "http://www.comune.trento.it/Aree-tematiche/Beni-comuni/Patti-di-collaborazione-e-adesioni/Patto-di-collaborazione-per-la-proposta-Una-poesia-di-strada"}, "geometry": {"type": "Point", "coordinates": [11.121743328211625, 46.05835540621176]}}, {"type": "Feature", "properties": {"id": 5, "descr": "Beni comuni: volontariato, cittadinanza  e amministrazioni pubbliche", "fumetto": "Beni comuni: volontariato, cittadinanza  e amministrazioni pubbliche", "link": "http://www.comune.trento.it/Aree-tematiche/Beni-comuni/Patti-di-collaborazione-e-adesioni/Patto-di-collaborazione-per-un-percorso-di-formazione-sui-beni-comuni"}, "geometry": {"type": "Point", "coordinates": [11.121080511997732, 46.06918420816628]}}, {"type": "Feature", "properties": {"id": 15, "descr": "Cippo a ricordo del gemellaggio Mattarello-Ergolding", "fumetto": "Cippo a ricordo del gemellaggio Mattarello-Ergolding", "link": "http://www.comune.trento.it/Aree-tematiche/Beni-comuni/Patti-di-collaborazione-e-adesioni/Patto-di-collaborazione-per-la-sistemazione-del-Cippo-a-ricordo-del-gemellaggio-Mattarello-Ergolding"}, "geometry": {"type": "Point", "coordinates": [11.129903026486733, 46.00748708740845]}}, {"type": "Feature", "properties": {"id": 1, "descr": "Piccole piante crescono", "fumetto": "Piccole piante crescono", "link": "http://www.comune.trento.it/Aree-tematiche/Beni-comuni/Patti-di-collaborazione-e-adesioni/Patto-di-collaborazione-per-la-proposta-Piccole-piante-crescono"}, "geometry": {"type": "Point", "coordinates": [11.12651479827756, 46.05866906706327]}}, {"type": "Feature", "properties": {"id": 2, "descr": "Immagin-abili", "fumetto": "Immagin-abili", "link": "http://www.comune.trento.it/Aree-tematiche/Beni-comuni/Patti-di-collaborazione-e-adesioni/Patto-di-collaborazione-per-la-proposta-IMMAGIN-ABILI"}, "geometry": {"type": "Point", "coordinates": [11.123767220224282, 46.05572570141139]}}, {"type": "Feature", "properties": {"id": 3, "descr": "A-zonzo:conoscere una citta senza muovere un passo", "fumetto": "A-zonzo:conoscere una citta senza muovere un passo", "link": "http://www.comune.trento.it/Aree-tematiche/Beni-comuni/Patti-di-collaborazione-e-adesioni/Patto-di-collaborazione-per-la-proposta-AZONZO-Conoscere-una-citta-senza-muovere-un-passo"}, "geometry": {"type": "Point", "coordinates": [11.112652317328495, 46.058805547036975]}}, {"type": "Feature", "properties": {"id": 4, "descr": "Un bene comune a Sardagna", "fumetto": "Un bene comune a Sardagna", "link": "http://www.comune.trento.it/Aree-tematiche/Beni-comuni/Patti-di-collaborazione-e-adesioni/Patto-di-collaborazione-per-la-proposta-Adotta-un-aiuola.-Un-bene-Comune-a-Sardagna"}, "geometry": {"type": "Point", "coordinates": [11.097738840933225, 46.06366197326401]}}, {"type": "Feature", "properties": {"id": 6, "descr": "Le tue idee colorano Madonna Bianca", "fumetto": "Le tue idee colorano Madonna Bianca", "link": "http://www.comune.trento.it/Aree-tematiche/Beni-comuni/Patti-di-collaborazione-e-adesioni/Patto-di-collaborazione-per-la-proposta-Le-tue-idee-colorano-Madonna-Bianca"}, "geometry": {"type": "Point", "coordinates": [11.134056091225483, 46.03972371408544]}}, {"type": "Feature", "properties": {"id": 7, "descr": "Fare storie...in biblioteca", "fumetto": "Fare storie...in biblioteca", "link": "http://www.comune.trento.it/Aree-tematiche/Beni-comuni/Patti-di-collaborazione-e-adesioni/Patto-di-collaborazione-per-la-proposta-Fare-storie-in-biblioteca"}, "geometry": {"type": "Point", "coordinates": [11.133269518160809, 46.04025421862043]}}, {"type": "Feature", "properties": {"id": 8, "descr": "Riqualificazione parco San Pio X", "fumetto": "Riqualificazione parco San Pio X", "link": "http://www.comune.trento.it/Aree-tematiche/Beni-comuni/Patti-di-collaborazione-e-adesioni/Patto-di-collaborazione-per-la-proposta-Riqualificazione-del-parco-di-San-Pio-X"}, "geometry": {"type": "Point", "coordinates": [11.119835503779766, 46.05488583751078]}}, {"type": "Feature", "properties": {"id": 9, "descr": "Un tocco di colore per cambiare il volto ad un muro", "fumetto": "Un tocco di colore per cambiare il volto ad un muro", "link": "http://www.comune.trento.it/Aree-tematiche/Beni-comuni/Patti-di-collaborazione-e-adesioni/Patto-di-collaborazione-per-la-proposta-Un-tocco-di-colore-per-cambiare-il-volto-ad-un-muro"}, "geometry": {"type": "Point", "coordinates": [11.129096075499376, 46.055387739894236]}}, {"type": "Feature", "properties": {"id": 11, "descr": "Riqualificazione parco A. Langer", "fumetto": "Riqualificazione parco A. Langer", "link": "http://www.comune.trento.it/Aree-tematiche/Beni-comuni/Patti-di-collaborazione-e-adesioni/Patto-di-collaborazione-per-la-valorizzazione-del-Parco-A.-Langer-Parco-del-Sale"}, "geometry": {"type": "Point", "coordinates": [11.124720187346101, 46.05498406375393]}}, {"type": "Feature", "properties": {"id": 13, "descr": "Riqualificazione Dos Trento", "fumetto": "Riqualificazione Dos Trento", "link": "http://www.comune.trento.it/Aree-tematiche/Beni-comuni/Patti-di-collaborazione-e-adesioni/Patto-di-collaborazione-I-NUVOLA-hanno-a-cuore-il-Dos-Trento"}, "geometry": {"type": "Point", "coordinates": [11.112881532496077, 46.0733121807136]}}, {"type": "Feature", "properties": {"id": 18, "descr": "Casa del cane", "fumetto": "Casa del cane", "link": "http://www.comune.trento.it/Aree-tematiche/Beni-comuni/Patti-di-collaborazione-e-adesioni/Patto-di-collaborazione-Casa-del-cane"}, "geometry": {"type": "Point", "coordinates": [11.121028516031501, 46.052629564244945]}}, {"type": "Feature", "properties": {"id": 19, "descr": "Aspettando lo scuolabus", "fumetto": "Aspettando lo scuolabus", "link": "http://www.comune.trento.it/Aree-tematiche/Beni-comuni/Patti-di-collaborazione-e-adesioni/Patto-di-collaborazione-Aspettando-lo-scuolabus"}, "geometry": {"type": "Point", "coordinates": [11.060743203835202, 46.07814638045561]}}, {"type": "Feature", "properties": {"id": 20, "descr": "Shelly: una applicazione al servizio dei cittadini per i beni comuni", "fumetto": "Shelly: una applicazione al servizio dei cittadini per i beni comuni", "link": "http://www.comune.trento.it/Aree-tematiche/Beni-comuni/Patti-di-collaborazione-e-adesioni/Patto-di-collaborazione-Shelly-una-applicazione-al-servizio-dei-cittadini-per-i-beni-comuni"}, "geometry": {"type": "Point", "coordinates": [11.121287397771846, 46.069040789897635]}}, {"type": "Feature", "properties": {"id": 10, "descr": "Coderdojo Trento", "fumetto": "Coderdojo Trento", "link": "http://www.comune.trento.it/Aree-tematiche/Beni-comuni/Patti-di-collaborazione-e-adesioni/Patto-di-collaborazione-per-la-proposta-Coderdojo-Trento"}, "geometry": {"type": "Point", "coordinates": [11.121198233131274, 46.07092553296275]}}, {"type": "Feature", "properties": {"id": 22, "descr": "Umore urbano", "fumetto": "Umore urbano", "link": "\nhttp://www.comune.trento.it/Aree-tematiche/Beni-comuni/Patti-di-collaborazione-e-adesioni/Patto-di-collaborazione-Umore-Urbano "}, "geometry": {"type": "Point", "coordinates": [11.124681945356798, 46.07239237212472]}}, {"type": "Feature", "properties": {"id": 23, "descr": "Ogni socio un albero", "fumetto": "Ogni socio un albero", "link": "http://www.comune.trento.it/Aree-tematiche/Beni-comuni/Patti-di-collaborazione-e-adesioni/Patto-di-collaborazione-Ogni-socio-un-albero"}, "geometry": {"type": "Point", "coordinates": [11.142010164185379, 46.05837550486154]}}, {"type": "Feature", "properties": {"id": 26, "descr": "Creato(ri) di bellezza", "fumetto": "Creato(ri) di bellezza", "link": "http://www.comune.trento.it/Aree-tematiche/Beni-comuni/Patti-di-collaborazione-e-adesioni/Patto-di-collaborazione-Creato-ri-di-bellezza"}, "geometry": {"type": "Point", "coordinates": [11.116322089028598, 46.061290554927005]}}, {"type": "Feature", "properties": {"id": 24, "descr": "Valorizzazione del patrimonio documentale della Biblioteca comunale", "fumetto": "Valorizzazione del patrimonio documentale della Biblioteca comunale", "link": "http://www.comune.trento.it/Aree-tematiche/Beni-comuni/Patti-di-collaborazione-e-adesioni/Valorizzazione-del-patrimonio-documentale-della-Biblioteca-comunale"}, "geometry": {"type": "Point", "coordinates": [11.120858765233827, 46.06973912246759]}}, {"type": "Feature", "properties": {"id": 25, "descr": "Restauro e cura del monumento ai caduti di Villazzano", "fumetto": "Restauro e cura del monumento ai caduti di Villazzano", "link": "http://www.comune.trento.it/Aree-tematiche/Beni-comuni/Patti-di-collaborazione-e-adesioni/Patto-di-collaborazione-per-il-restauro-e-cura-del-monumento-ai-caduti-di-Villazzano"}, "geometry": {"type": "Point", "coordinates": [11.143968168207893, 46.04926219155757]}}, {"type": "Feature", "properties": {"id": 28, "descr": "Passeggiata lungo un fiume di opere", "fumetto": "Passeggiata lungo un fiume di opere", "link": "http://www.comune.trento.it/Aree-tematiche/Beni-comuni/Patti-di-collaborazione-e-adesioni/Patto-di-collaborazione-Passeggiata-lungo-un-fiume-di-opere"}, "geometry": {"type": "Point", "coordinates": [11.11229485501865, 46.0602369970928]}}, {"type": "Feature", "properties": {"id": 30, "descr": "La scuola fuori dalla scuola", "fumetto": "La scuola fuori dalla scuola", "link": "http://www.comune.trento.it/Aree-tematiche/Beni-comuni/Patti-di-collaborazione-e-adesioni/Patto-di-collaborazione-La-scuola-fuori-dalla-scuola"}, "geometry": {"type": "Point", "coordinates": [11.119230347264132, 46.055620922418804]}}, {"type": "Feature", "properties": {"id": 40, "descr": "Ravina: alla mia scuola ci penso io ", "fumetto": "Ravina: alla mia scuola ci penso io ", "link": "http://www.comune.trento.it/Aree-tematiche/Beni-comuni/Patti-di-collaborazione-e-adesioni/Ravina-alla-mia-scuola-ci-penso-anch-io"}, "geometry": {"type": "Point", "coordinates": [11.108230426580967, 46.038121907183616]}}, {"type": "Feature", "properties": {"id": 31, "descr": "Quest' aiuola non fa piu' pieta'", "fumetto": "Quest' aiuola non fa piu' pieta'", "link": "http://www.comune.trento.it/Aree-tematiche/Beni-comuni/Patti-di-collaborazione-e-adesioni/Patto-di-collaborazione-Quest-aiuola-non-fa-piu-pieta"}, "geometry": {"type": "Point", "coordinates": [11.118823278508078, 46.07452227490606]}}, {"type": "Feature", "properties": {"id": 32, "descr": "Ronca Camp! 2.0", "fumetto": "Ronca Camp! 2.0", "link": "http://www.comune.trento.it/Aree-tematiche/Beni-comuni/Proposte-di-collaborazione/Proposte-dei-cittadini/Ronca-Camp%21-2.0"}, "geometry": {"type": "Point", "coordinates": [11.102415974689347, 46.09985827967317]}}, {"type": "Feature", "properties": {"id": 33, "descr": "Un murales per le Albere", "fumetto": "Un murales per le Albere", "link": "http://www.comune.trento.it/Aree-tematiche/Beni-comuni/Patti-di-collaborazione-e-adesioni/Patto-di-collaborazione-Un-murales-per-le-Albere"}, "geometry": {"type": "Point", "coordinates": [11.116135620089015, 46.06128779299559]}}, {"type": "Feature", "properties": {"id": 34, "descr": "San Marco: Bene Comune", "fumetto": "San Marco: Bene Comune", "link": "http://www.comune.trento.it/Aree-tematiche/Beni-comuni/Proposte-di-collaborazione/Proposte-dei-cittadini/San-Marco-Bene-Comune"}, "geometry": {"type": "Point", "coordinates": [11.12638572097226, 46.07023376121132]}}, {"type": "Feature", "properties": {"id": 27, "descr": "Orto come bene comune: tra territorio e comunit\u00e0", "fumetto": "Orto come bene comune: tra territorio e comunit\u00e0", "link": "http://www.comune.trento.it/Aree-tematiche/Beni-comuni/Patti-di-collaborazione-e-adesioni/Patto-di-collaborazione-Orto-come-bene-comune-tra-territorio-e-comunita"}, "geometry": {"type": "Point", "coordinates": [11.113448817252767, 46.06259575047591]}}, {"type": "Feature", "properties": {"id": 35, "descr": "Fiori dalla fabbrica: Trento, Michelin 1927 - 1999", "fumetto": "Fiori dalla fabbrica: Trento, Michelin 1927 - 1999", "link": "http://www.comune.trento.it/Aree-tematiche/Beni-comuni/Proposte-di-collaborazione/Proposte-dei-cittadini/Fiori-dalla-fabbrica-Trento-Michelin-1927-1999"}, "geometry": {"type": "Point", "coordinates": [11.113203665528639, 46.06246741024023]}}, {"type": "Feature", "properties": {"id": 36, "descr": "Curiamo il monumento", "fumetto": "Curiamo il monumento", "link": "http://www.comune.trento.it/Aree-tematiche/Beni-comuni/Patti-di-collaborazione-e-adesioni/Curiamo-il-Monumento"}, "geometry": {"type": "Point", "coordinates": [11.111483825438926, 46.10825866795338]}}, {"type": "Feature", "properties": {"id": 37, "descr": "Progetto STRA.BENE azioni di cura proposte da parte dell'Istituto Comprensivo Aldeno Mattarelllo", "fumetto": "Progetto STRA.BENE azioni di cura proposte da parte dell'Istituto Comprensivo Aldeno Mattarelllo", "link": "http://www.comune.trento.it/Aree-tematiche/Beni-comuni/Proposte-di-collaborazione/Proposte-dei-cittadini/Progetto-STRA.BENE-azioni-di-cura-proposte-da-parte-dell-Istituto-Comprensivo-Aldeno-Mattarello"}, "geometry": {"type": "Point", "coordinates": [11.130713796893426, 46.00675630732319]}}, {"type": "Feature", "properties": {"id": 38, "descr": "Progetto STRA.BENE azioni di cura proposte dall'Istituto Comprensivo Trento 6", "fumetto": "Progetto STRA.BENE azioni di cura proposte da parte dell'Istituto Comprensivo Trento 6", "link": "http://www.comune.trento.it/Aree-tematiche/Beni-comuni/Patti-di-collaborazione-e-adesioni/Progetto-STRA.BENE-azioni-di-cura-proposte-da-parte-dell-Istituto-Comprensivo-Trento-6"}, "geometry": {"type": "Point", "coordinates": [11.117706120677434, 46.07268454641445]}}, {"type": "Feature", "properties": {"id": 39, "descr": "Progetto STRA.BENE azioni di cura proposte da parte dell'Istituto Arcivescovile", "fumetto": "Progetto STRA.BENE azioni di cura proposte da parte dell'Istituto Arcivescovile", "link": "http://www.comune.trento.it/Aree-tematiche/Beni-comuni/Patti-di-collaborazione-e-adesioni/Progetto-STRA.BENE-azioni-di-cura-proposte-da-parte-dell-Istituto-Arcivescovile"}, "geometry": {"type": "Point", "coordinates": [11.121539010589748, 46.06137995636406]}}, {"type": "Feature", "properties": {"id": 41, "descr": "Rigenerazione urbana con un murale sul tema comunita' e cooperazione", "fumetto": "Rigenerazione urbana con un murale sul tema comunita' e cooperazione", "link": "http://www.comune.trento.it/Aree-tematiche/Beni-comuni/Proposte-di-collaborazione/Proposte-dei-cittadini/Rigenerazione-urbana-con-un-murale-sul-tema-comunita-e-cooperazione"}, "geometry": {"type": "Point", "coordinates": [11.119072357542382, 46.06173309397161]}}, {"type": "Feature", "properties": {"id": 42, "descr": "Coloriamo Gardolo", "fumetto": "Coloriamo Gardolo", "link": "http://www.comune.trento.it/Aree-tematiche/Beni-comuni/Patti-di-collaborazione-e-adesioni/Coloriamo-Gardolo"}, "geometry": {"type": "Point", "coordinates": [11.107438939097594, 46.11480308746442]}}, {"type": "Feature", "properties": {"id": 43, "descr": "Giochiamoci il cortile", "fumetto": "Giochiamoci il cortile", "link": "http://www.comune.trento.it/Aree-tematiche/Beni-comuni/Patti-di-collaborazione-e-adesioni/Giochiamoci-il-cortile"}, "geometry": {"type": "Point", "coordinates": [11.121170888411442, 46.05339818023768]}}, {"type": "Feature", "properties": {"id": 44, "descr": "Workshop Chiasma 2019", "fumetto": "Workshop Chiasma 2019", "link": "http://www.comune.trento.it/Aree-tematiche/Beni-comuni/Patti-di-collaborazione-e-adesioni/Workshop-Chiasma-2019"}, "geometry": {"type": "Point", "coordinates": [11.12526858592164, 46.07258395835958]}}, {"type": "Feature", "properties": {"id": 48, "descr": "Degrade' - un progetto di street art per la cura dei quartieri lungo il Fersina", "fumetto": "Degrade' - un progetto di street art per la cura dei quartieri lungo il Fersina", "link": "https://www.comune.trento.it/Aree-tematiche/Beni-comuni/Patti-di-collaborazione-e-adesioni/Degrade-un-progetto-di-street-art-per-la-cura-dei-quartieri-lungo-il-Fersina"}, "geometry": {"type": "Point", "coordinates": [11.123621694229028, 46.05501677988717]}}, {"type": "Feature", "properties": {"id": 86, "descr": "Sala lettura presso S. Anna", "fumetto": "Sala lettura presso S. Anna", "link": "https://www.comune.trento.it/Aree-tematiche/Beni-comuni/Patti-di-collaborazione-e-adesioni/Patto-di-Collaborazione-Sala-lettura-presso-S.Anna"}, "geometry": {"type": "Point", "coordinates": [11.042574410265267, 46.06483326939486]}}, {"type": "Feature", "properties": {"id": 46, "descr": "Progetto STRA.BENE azioni di cura proposte dalla scuola Steiner", "fumetto": "Progetto STRA.BENE azioni di cura proposte dalla scuola Steiner", "link": "http://www.comune.trento.it/Aree-tematiche/Beni-comuni/Patti-di-collaborazione-e-adesioni/Progetto-STRA.BENE-azioni-di-cura-proposte-da-parte-della-Scuola-Steiner"}, "geometry": {"type": "Point", "coordinates": [11.138308383462507, 46.04074765278385]}}, {"type": "Feature", "properties": {"id": 49, "descr": "Il parco e' anche mio", "fumetto": "Il parco e' anche mio", "link": "https://www.comune.trento.it/Aree-tematiche/Beni-comuni/Patti-di-collaborazione-e-adesioni/Il-parco-e-anche-mio"}, "geometry": {"type": "Point", "coordinates": [11.115274492851404, 46.115458867390664]}}, {"type": "Feature", "properties": {"id": 50, "descr": "Al mio rione ci penso anch'io", "fumetto": "Al mio rione ci penso anch'io", "link": "https://www.comune.trento.it/Aree-tematiche/Beni-comuni/Patti-di-collaborazione-e-adesioni/Al-mio-rione-ci-penso-anch-io"}, "geometry": {"type": "Point", "coordinates": [11.10180631015551, 46.08191443837148]}}, {"type": "Feature", "properties": {"id": 29, "descr": "Ronca Camp!  Laboratorio di competenze civiche", "fumetto": "Ronca Camp!  Laboratorio di competenze civiche", "link": "http://www.comune.trento.it/Aree-tematiche/Beni-comuni/Patti-di-collaborazione-e-adesioni/Patto-di-collaborazione-Ronca-Camp-Laboratorio-di-competenze-civiche"}, "geometry": {"type": "Point", "coordinates": [11.10209709807795, 46.09986269908372]}}, {"type": "Feature", "properties": {"id": 51, "descr": "Matteottimisti - la festa di via Matteotti", "fumetto": "Matteottimisti - la festa di via Matteotti", "link": "https://www.comune.trento.it/Aree-tematiche/Beni-comuni/Patti-di-collaborazione-e-adesioni/Matteottimisti-la-festa-di-via-Matteotti"}, "geometry": {"type": "Point", "coordinates": [11.122352895253481, 46.05633743900931]}}, {"type": "Feature", "properties": {"id": 52, "descr": "Sport, un bene comune", "fumetto": "Sport, un bene comune", "link": "https://www.comune.trento.it/Aree-tematiche/Beni-comuni/Patti-di-collaborazione-e-adesioni/Sport-un-bene-in-comune"}, "geometry": {"type": "Point", "coordinates": [11.121399485833651, 46.06671287883589]}}, {"type": "Feature", "properties": {"id": 53, "descr": "Bilu: punto di incontro, aggregazione e promozione culturale", "fumetto": "Bilu: punto di incontro, aggregazione e promozione culturale", "link": "https://www.comune.trento.it/Aree-tematiche/Beni-comuni/Patti-di-collaborazione-e-adesioni/Bilu-punto-di-incontro-aggregazione-e-promozione-culturale"}, "geometry": {"type": "Point", "coordinates": [11.120026834510176, 46.088218294379864]}}, {"type": "Feature", "properties": {"id": 55, "descr": "Pronto P.I.A. Persone Insieme per gli Anziani", "fumetto": "Pronto P.I.A. Persone Insieme per gli Anziani", "link": "https://www.comune.trento.it/Aree-tematiche/Beni-comuni/Patti-di-collaborazione-e-adesioni/Pronto-P.I.A.-Persone-Insieme-per-gli-Anziani"}, "geometry": {"type": "Point", "coordinates": [11.121288254228755, 46.06907648318308]}}, {"type": "Feature", "properties": {"id": 21, "descr": "Patto di collaborazione per un laboratorio partecipato sugli orti urbani", "fumetto": "Patto di collaborazione per un laboratorio partecipato sugli orti urbani", "link": "http://www.comune.trento.it/Aree-tematiche/Beni-comuni/Patti-di-collaborazione-e-adesioni/Patto-di-collaborazione-per-un-laboratorio-partecipato-sugli-orti-urbani"}, "geometry": {"type": "Point", "coordinates": [11.121288677239452, 46.069008566814794]}}, {"type": "Feature", "properties": {"id": 56, "descr": "I fiori della solidarieta'", "fumetto": "I fiori della solidarieta'", "link": "https://www.comune.trento.it/Aree-tematiche/Beni-comuni/Patti-di-collaborazione-e-adesioni/Patto-di-collaborazione-I-fiori-della-solidarieta"}, "geometry": {"type": "Point", "coordinates": [11.121291266268182, 46.06897648788956]}}, {"type": "Feature", "properties": {"id": 57, "descr": "Questione di stile. Vivere lo spazio pubblico in modo creativo.", "fumetto": "Questione di stile. Vivere lo spazio pubblico in modo creativo.", "link": "https://www.comune.trento.it/Aree-tematiche/Beni-comuni/Patti-di-collaborazione-e-adesioni/Questione-di-stile.-Vivere-lo-spazio-pubblico-in-modo-creativo"}, "geometry": {"type": "Point", "coordinates": [11.126385975902675, 46.06343535914793]}}, {"type": "Feature", "properties": {"id": 47, "descr": "Orto aperto 3.0", "fumetto": "Orto aperto 3.0", "link": "\nhttps://www.comune.trento.it/Aree-tematiche/Beni-comuni/Patti-di-collaborazione-e-adesioni/Patto-di-collaborazione-Orto-Aperto-3.0"}, "geometry": {"type": "Point", "coordinates": [11.12420289466689, 46.0541660475176]}}, {"type": "Feature", "properties": {"id": 58, "descr": "Giardino d'estate ragazzi - Teatro famiglie", "fumetto": "Giardino d'estate ragazzi - Teatro famiglie", "link": "https://www.comune.trento.it/Aree-tematiche/Beni-comuni/Patti-di-collaborazione-e-adesioni/Patto-di-collaborazione-Giardino-d-estate-ragazzi-Teatro-famiglie"}, "geometry": {"type": "Point", "coordinates": [11.12635629892016, 46.063700417624894]}}, {"type": "Feature", "properties": {"id": 60, "descr": "Dal Trentino al Mondo: storie di emigrazione ", "fumetto": "Dal Trentino al Mondo: storie di emigrazione ", "link": "https://www.comune.trento.it/Aree-tematiche/Beni-comuni/Proposte-di-collaborazione/Proposte-dei-cittadini/Dal-Trentino-al-Mondo-storie-di-emigrazione"}, "geometry": {"type": "Point", "coordinates": [11.121054947646588, 46.086298588892845]}}, {"type": "Feature", "properties": {"id": 61, "descr": "\"Meano Bella\"", "fumetto": "\"Meano Bella\"", "link": "https://www.comune.trento.it/Aree-tematiche/Beni-comuni/Patti-di-collaborazione-e-adesioni/Patto-di-collaborazione-Meano-Bella"}, "geometry": {"type": "Point", "coordinates": [11.11662563285678, 46.12269182560595]}}, {"type": "Feature", "properties": {"id": 62, "descr": "In biblioteca per fare comunita'", "fumetto": "In biblioteca per fare comunita'", "link": "https://www.comune.trento.it/Aree-tematiche/Beni-comuni/Patti-di-collaborazione-e-adesioni/Patto-di-collaborazione-In-biblioteca-per-fare-comunita"}, "geometry": {"type": "Point", "coordinates": [11.133740388853147, 46.042421980085116]}}, {"type": "Feature", "properties": {"id": 64, "descr": "Sotto Sale'", "fumetto": "Sotto Sale'", "link": "https://www.comune.trento.it/Aree-tematiche/Beni-comuni/Patti-di-collaborazione-e-adesioni/Patto-di-collaborazione-Sotto-Sale"}, "geometry": {"type": "Point", "coordinates": [11.123975531352931, 46.05483238768034]}}, {"type": "Feature", "properties": {"id": 65, "descr": "Il futuro che vorrei", "fumetto": "Il futuro che vorrei", "link": "https://www.comune.trento.it/Aree-tematiche/Beni-comuni/Patti-di-collaborazione-e-adesioni/Patto-di-collaborazione-Il-futuro-che-vorrei"}, "geometry": {"type": "Point", "coordinates": [11.116384838628367, 46.059780369893076]}}, {"type": "Feature", "properties": {"id": 66, "descr": "Il giardino incantato", "fumetto": "Il giardino incantato", "link": "https://www.comune.trento.it/Aree-tematiche/Beni-comuni/Patti-di-collaborazione-e-adesioni/Patto-di-collaborazione-Il-giardino-incantato"}, "geometry": {"type": "Point", "coordinates": [11.127892154262703, 46.068356415448086]}}, {"type": "Feature", "properties": {"id": 84, "descr": "Centro socio - culturale Piccola Biblioteca di Romagnano", "fumetto": "Centro socio - culturale Piccola Biblioteca di Romagnano", "link": "https://www.comune.trento.it/Aree-tematiche/Beni-comuni/Patti-di-collaborazione-e-adesioni/Patto-di-collaborazione-Centro-socio-culturale-Piccola-Biblioteca-di-Romagnano"}, "geometry": {"type": "Point", "coordinates": [11.105876983180258, 46.017184704290905]}}, {"type": "Feature", "properties": {"id": 68, "descr": "Rispetto e condivisione", "fumetto": "Rispetto e condivisione", "link": "https://www.comune.trento.it/Aree-tematiche/Beni-comuni/Patti-di-collaborazione-e-adesioni/Patto-di-collaborazione-Rispetto-e-condivisione"}, "geometry": {"type": "Point", "coordinates": [11.130049726868956, 46.00836806412236]}}, {"type": "Feature", "properties": {"id": 69, "descr": "Manifestiamo la Costituzione", "fumetto": "Manifestiamo la Costituzione", "link": "https://www.comune.trento.it/Aree-tematiche/Beni-comuni/Patti-di-collaborazione-e-adesioni/Patto-di-collaborazione-Manifestiamo-la-Costituzione"}, "geometry": {"type": "Point", "coordinates": [11.128542136589578, 46.065153282061175]}}, {"type": "Feature", "properties": {"id": 70, "descr": "Gino Rifiutino In viaggio tra i Rifi-utili", "fumetto": "Gino Rifiutino In viaggio tra i Rifi-utili", "link": "https://www.comune.trento.it/Aree-tematiche/Beni-comuni/Patti-di-collaborazione-e-adesioni/Patto-di-collaborazione-Gino-Rifiutino-In-viaggio-tra-i-Rifi-utili"}, "geometry": {"type": "Point", "coordinates": [11.14153739053956, 46.07662473355422]}}, {"type": "Feature", "properties": {"id": 71, "descr": "A chiese aperte: nella citta' del Concilio, un ponte sospeso tra cultura  e spiritualita'", "fumetto": "A chiese aperte: nella citta' del Concilio, un ponte sospeso tra cultura  e spiritualita'", "link": "https://www.comune.trento.it/Aree-tematiche/Beni-comuni/Patti-di-collaborazione-e-adesioni/Patto-di-collaborazione-A-chiese-aperte-nella-citta-del-Concilio-un-ponte-sospeso-tra-cultura-e-spiritualita"}, "geometry": {"type": "Point", "coordinates": [11.137824851684291, 46.05825346693964]}}, {"type": "Feature", "properties": {"id": 16, "descr": "Cura rinnovata al Capitello della Madonna Pellegrina di Villazzano", "fumetto": "Cura rinnovata al Capitello della Madonna Pellegrina di Villazzano", "link": "\nhttps://www.comune.trento.it/Aree-tematiche/Beni-comuni/Patti-di-collaborazione-e-adesioni/Patto-di-collaborazione-Cura-rinnovata-al-Capitello-della-Madonna-Pellegrina-di-Villazzano"}, "geometry": {"type": "Point", "coordinates": [11.145909444551954, 46.048732594820386]}}, {"type": "Feature", "properties": {"id": 17, "descr": "Park Trento: un bene comune per promuovere lo sport per tutti", "fumetto": "Park Trento: un bene comune per promuovere lo sport per tutti", "link": "https://www.comune.trento.it/Aree-tematiche/Beni-comuni/Patti-di-collaborazione-e-adesioni/Patto-di-collaborazione-Park-Trento-un-bene-comune-per-promuovere-lo-sport-per-tutti"}, "geometry": {"type": "Point", "coordinates": [11.115318194696941, 46.05222662076974]}}, {"type": "Feature", "properties": {"id": 54, "descr": "Canova un bene condiviso: il campo da calcio a servizio della comunit\u00e0", "fumetto": "Canova un bene condiviso: il campo da calcio a servizio della comunit\u00e0", "link": "https://www.comune.trento.it/Aree-tematiche/Beni-comuni/Patti-di-collaborazione-e-adesioni/Rinnovo-patto-di-collaborazione-Canova-un-bene-condiviso-il-campo-da-calcio-a-servizio-della-comunita"}, "geometry": {"type": "Point", "coordinates": [11.109751151085389, 46.099595189341386]}}, {"type": "Feature", "properties": {"id": 72, "descr": "Il sentiero magico", "fumetto": "Il sentiero magico", "link": "https://www.comune.trento.it/Aree-tematiche/Beni-comuni/Patti-di-collaborazione-e-adesioni/Patto-di-collaborazione-Il-sentiero-magico"}, "geometry": {"type": "Point", "coordinates": [11.132710480882276, 46.048989408293764]}}, {"type": "Feature", "properties": {"id": 73, "descr": "Inclusivita' sulla via Claudia Augusta", "fumetto": "Inclusivita' sulla via Claudia Augusta", "link": "https://www.comune.trento.it/Aree-tematiche/Beni-comuni/Patti-di-collaborazione-e-adesioni/Patto-di-collaborazione-Inclusivita-sulla-via-Claudia-Augusta"}, "geometry": {"type": "Point", "coordinates": [11.116935526378493, 46.12270130419067]}}, {"type": "Feature", "properties": {"id": 74, "descr": "Il giardino degli aromi", "fumetto": "Il giardino degli aromi", "link": "https://www.comune.trento.it/Aree-tematiche/Beni-comuni/Patti-di-collaborazione-e-adesioni/Patto-di-collaborazione-Il-Giardino-degli-aromi"}, "geometry": {"type": "Point", "coordinates": [11.125677417281302, 46.05843625382525]}}, {"type": "Feature", "properties": {"id": 45, "descr": "Diversita'  per crescere insieme - dalla bioversit\u00e0 al piacere della lettura ", "fumetto": "Diversita'  per crescere insieme - dalla bioversit\u00e0 al piacere della lettura ", "link": "https://www.comune.trento.it/Aree-tematiche/Beni-comuni/Patti-di-collaborazione-e-adesioni/Patto-di-Collaborazione-Diversita-per-crescere-insieme-dalla-biodiversita-al-piacere-per-la-lettura"}, "geometry": {"type": "Point", "coordinates": [11.113045252415894, 46.07102163079181]}}, {"type": "Feature", "properties": {"id": 75, "descr": "Installazione per Piazza Piedicastello", "fumetto": "Installazione per Piazza Piedicastello", "link": "https://www.comune.trento.it/Aree-tematiche/Beni-comuni/Patti-di-collaborazione-e-adesioni/Patto-di-collaborazione-Installazione-per-Piazza-Piedicastello"}, "geometry": {"type": "Point", "coordinates": [11.113263538315888, 46.070981277468114]}}, {"type": "Feature", "properties": {"id": 76, "descr": "Il Quartiere gioca", "fumetto": "Il Quartiere gioca", "link": "https://www.comune.trento.it/Aree-tematiche/Beni-comuni/Patti-di-collaborazione-e-adesioni/Patto-di-collaborazione-Il-Quartiere-gioca"}, "geometry": {"type": "Point", "coordinates": [11.138404342936326, 46.04197291102488]}}, {"type": "Feature", "properties": {"id": 59, "descr": "Martedi' del seme al parco", "fumetto": "Martedi' del seme al parco", "link": "https://www.comune.trento.it/Aree-tematiche/Beni-comuni/Patti-di-collaborazione-e-adesioni/Patto-di-collaborazione-Martedi-del-mese-al-parco"}, "geometry": {"type": "Point", "coordinates": [11.120808758310044, 46.08660815837574]}}, {"type": "Feature", "properties": {"id": 77, "descr": "Kanova playground - nelle mie mani", "fumetto": "Kanova playground - nelle mie mani", "link": "https://www.comune.trento.it/Aree-tematiche/Beni-comuni/Patti-di-collaborazione-e-adesioni/Patto-di-collaborazione-Kanova-playground-nelle-mie-mani"}, "geometry": {"type": "Point", "coordinates": [11.110054401540252, 46.10033178938806]}}, {"type": "Feature", "properties": {"id": 78, "descr": "Povo, la nostra casa", "fumetto": "Povo, la nostra casa", "link": "https://www.comune.trento.it/Aree-tematiche/Beni-comuni/Patti-di-collaborazione-e-adesioni/Patto-di-collaborazione-Povo-la-nostra-casa"}, "geometry": {"type": "Point", "coordinates": [11.15415244457629, 46.06534177304169]}}, {"type": "Feature", "properties": {"id": 79, "descr": "#Insieme al volo", "fumetto": "#Insieme al volo", "link": "https://www.comune.trento.it/Aree-tematiche/Beni-comuni/Patti-di-collaborazione-e-adesioni/Patto-di-collaborazione-Insiemealvolo"}, "geometry": {"type": "Point", "coordinates": [11.116702500057619, 46.124962890338224]}}, {"type": "Feature", "properties": {"id": 80, "descr": "Insieme tra i libri: leggere, esplorare, sperimentare", "fumetto": "Insieme tra i libri: leggere, esplorare, sperimentare", "link": "https://www.comune.trento.it/Aree-tematiche/Beni-comuni/Patti-di-collaborazione-e-adesioni/Patto-di-collaborazione-Insieme-tra-i-libri-leggere-esplorare-sperimentare"}, "geometry": {"type": "Point", "coordinates": [11.131519609267661, 46.08985046212091]}}, {"type": "Feature", "properties": {"id": 67, "descr": "Pigarelli Basket Court  rinnovo estate 2022", "fumetto": "Pigarelli Basket Court  rinnovo estate 2022", "link": "https://www.comune.trento.it/Aree-tematiche/Beni-comuni/Patti-di-collaborazione-e-adesioni/Patto-di-Collaborazione-Pigarelli-Basket-Court-Rinnovo-Estate-2022"}, "geometry": {"type": "Point", "coordinates": [11.110918512305167, 46.104515596975276]}}, {"type": "Feature", "properties": {"id": 81, "descr": "Bookcrossing a Centochiavi", "fumetto": "Bookcrossing a Centochiavi", "link": "https://www.comune.trento.it/Aree-tematiche/Beni-comuni/Patti-di-collaborazione-e-adesioni/Patto-di-collaborazione-Bookcrossing-a-Centochiavi"}, "geometry": {"type": "Point", "coordinates": [11.120147372599206, 46.09376633385833]}}, {"type": "Feature", "properties": {"id": 82, "descr": "La piccola biblioteca di Cadine", "fumetto": "La piccola biblioteca di Cadine", "link": "https://www.comune.trento.it/Aree-tematiche/Beni-comuni/Patti-di-collaborazione-e-adesioni/Patto-di-collaborazione-La-piccola-biblioteca-di-Cadine"}, "geometry": {"type": "Point", "coordinates": [11.06298758464413, 46.085723527886095]}}, {"type": "Feature", "properties": {"id": 83, "descr": "#Cambiamolastrada", "fumetto": "#Cambiamolastrada", "link": "https://www.comune.trento.it/Aree-tematiche/Beni-comuni/Patti-di-collaborazione-e-adesioni/Patto-di-collaborazione-Cambiamolastrada"}, "geometry": {"type": "Point", "coordinates": [11.119057989901759, 46.05568663058367]}}, {"type": "Feature", "properties": {"id": 71, "descr": "A chiese aperte: nella citta' del Concilio, un ponte sospeso tra cultura  e spiritualita'", "fumetto": "A chiese aperte: nella citta' del Concilio, un ponte sospeso tra cultura  e spiritualita'", "link": "https://www.comune.trento.it/Aree-tematiche/Beni-comuni/Patti-di-collaborazione-e-adesioni/Patto-di-collaborazione-A-chiese-aperte-nella-citta-del-Concilio-un-ponte-sospeso-tra-cultura-e-spiritualita"}, "geometry": {"type": "Point", "coordinates": [11.10344564718993, 46.07848409738799]}}, {"type": "Feature", "properties": {"id": 85, "descr": "My CITY", "fumetto": "My CITY", "link": "https://www.comune.trento.it/Aree-tematiche/Beni-comuni/Patti-di-collaborazione-e-adesioni/Patto-di-Collaborazione-MyCity"}, "geometry": {"type": "Point", "coordinates": [11.121288778662164, 46.06910729380803]}}, {"type": "Feature", "properties": {"id": 88, "descr": "Biblioteca di Montevaccino - Castello di Carta", "fumetto": "Biblioteca di Montevaccino - Castello di Carta", "link": "https://www.comune.trento.it/Aree-tematiche/Beni-comuni/Patti-di-collaborazione-e-adesioni/Patto-di-collaborazione-Biblioteca-di-Montevaccino-Castello-di-Carta"}, "geometry": {"type": "Point", "coordinates": [11.14427594280905, 46.108178136679236]}}, {"type": "Feature", "properties": {"id": 89, "descr": "Parco di Collaborazione", "fumetto": "Parco di Collaborazione", "link": "https://www.comune.trento.it/Aree-tematiche/Beni-comuni/Patti-di-collaborazione-e-adesioni/Patto-di-collaborazione-Parco-di-Collaborazione"}, "geometry": {"type": "Point", "coordinates": [11.126308474264064, 46.06317278752494]}}, {"type": "Feature", "properties": {"id": 90, "descr": "Un parco per  S. Martino", "fumetto": "Un parco per  S. Martino", "link": "https://www.comune.trento.it/Aree-tematiche/Beni-comuni/Patti-di-collaborazione-e-adesioni/Patto-di-collaborazione-Un-parco-per-San-Martino"}, "geometry": {"type": "Point", "coordinates": [11.12675857815653, 46.07261568823792]}}, {"type": "Feature", "properties": {"id": 91, "descr": "Sala Dematte'", "fumetto": "Sala Dematte'", "link": "https://www.comune.trento.it/Aree-tematiche/Beni-comuni/Patti-di-collaborazione-e-adesioni/Patto-di-collaborazione-Sala-Dematte"}, "geometry": {"type": "Point", "coordinates": [11.10745606214509, 46.03842580701942]}}, {"type": "Feature", "properties": {"id": 92, "descr": "Rifacimento casetta Piovono Libri in via San Pio X", "fumetto": "Rifacimento casetta Piovono Libri in via San Pio X", "link": "https://www.comune.trento.it/Aree-tematiche/Beni-comuni/Patti-di-collaborazione-e-adesioni/Patto-di-collaborazione-Rifacimento-casetta-Piovono-Libri-in-Via-San-Pio-X"}, "geometry": {"type": "Point", "coordinates": [11.119685135687682, 46.05662614979216]}}]}