{"type": "FeatureCollection", "name": "stazioni", "crs": null, "features": [{"type": "Feature", "properties": {"nome": "FS - Trento", "tratta": "FFSS"}, "geometry": {"type": "Point", "coordinates": [11.120056, 46.0726]}}, {"type": "Feature", "properties": {"nome": "FTM - Trento", "tratta": "FTM"}, "geometry": {"type": "Point", "coordinates": [11.1208, 46.07439]}}, {"type": "Feature", "properties": {"nome": "FTM - Commerciale", "tratta": "FTM"}, "geometry": {"type": "Point", "coordinates": [11.113059999999999, 46.090139999999984]}}, {"type": "Feature", "properties": {"nome": "FTM - Gardolo", "tratta": "FTM"}, "geometry": {"type": "Point", "coordinates": [11.104558, 46.108096999999994]}}, {"type": "Feature", "properties": {"nome": "FTM - Spini", "tratta": "FTM"}, "geometry": {"type": "Point", "coordinates": [11.104856, 46.118667]}}, {"type": "Feature", "properties": {"nome": "FTM - Lamar", "tratta": "FTM"}, "geometry": {"type": "Point", "coordinates": [11.107592999999998, 46.12595999999999]}}, {"type": "Feature", "properties": {"nome": "VALS - S. Chiara", "tratta": "VALSUGANA"}, "geometry": {"type": "Point", "coordinates": [11.13544, 46.054385]}}, {"type": "Feature", "properties": {"nome": "VALS - S. Bartolomeo", "tratta": "VALSUGANA"}, "geometry": {"type": "Point", "coordinates": [11.135147, 46.04746]}}, {"type": "Feature", "properties": {"nome": "VALS - Villazzano", "tratta": "VALSUGANA"}, "geometry": {"type": "Point", "coordinates": [11.139123, 46.045182999999994]}}, {"type": "Feature", "properties": {"nome": "VALS - Povo Mesiano", "tratta": "VALSUGANA"}, "geometry": {"type": "Point", "coordinates": [11.142646, 46.06486999999999]}}]}