{"type": "FeatureCollection", "name": "taxi", "crs": null, "features": [{"type": "Feature", "properties": {"nome": "TAXI TRENTO - VIA SANTA CROCE", "indirizzo": "via S.Croce n. 26", "x": 46.064461, "y": 11.12323}, "geometry": {"type": "Point", "coordinates": [11.12323, 46.064461]}}, {"type": "Feature", "properties": {"nome": "TAXI TRENTO - VIA DELLA SCIENZA E DEL LAVORO", "indirizzo": "via della Scienza e del Lavoro", "x": 46.059791, "y": 11.11596}, "geometry": {"type": "Point", "coordinates": [11.11596, 46.059791]}}, {"type": "Feature", "properties": {"nome": "TAXI TRENTO - PIAZZA DANTE", "indirizzo": "piazza Dante, 9", "x": 46.072017, "y": 11.121362}, "geometry": {"type": "Point", "coordinates": [11.121361999999998, 46.072016999999995]}}, {"type": "Feature", "properties": {"nome": "TAXI TRENTO - VIA PETRARCA", "indirizzo": "via Petrarca 8", "x": 46.074755, "y": 11.123907}, "geometry": {"type": "Point", "coordinates": [11.123907, 46.07475499999999]}}, {"type": "Feature", "properties": {"nome": "TAXI TRENTO - PIAZZALE ZUFFO", "indirizzo": "piazzale Zuffo", "x": 46.075811, "y": 11.109615}, "geometry": {"type": "Point", "coordinates": [11.109614999999998, 46.075811]}}, {"type": "Feature", "properties": {"nome": "TAXI TRENTO - VIA GILLI", "indirizzo": "via Gilli 4", "x": 46.090976, "y": 11.118946}, "geometry": {"type": "Point", "coordinates": [11.118946, 46.090976]}}, {"type": "Feature", "properties": {"nome": "TAXI TRENTO - VIA DEGASPERI", "indirizzo": "via Degasperi 77", "x": 46.044135, "y": 11.129531}, "geometry": {"type": "Point", "coordinates": [11.129531, 46.044135]}}, {"type": "Feature", "properties": {"nome": "TAXI TRENTO - LARGO MEDAGLIE D'ORO", "indirizzo": "Largo Medaglie d'oro 9", "x": 46.057744, "y": 11.132683}, "geometry": {"type": "Point", "coordinates": [11.132683, 46.057744]}}, {"type": "Feature", "properties": {"nome": "TAXI TRENTO - VIA BELENZANI", "indirizzo": "via Belenzani in prossimit\u00e0 piazza Duomo", "x": 46.067866, "y": 11.121281}, "geometry": {"type": "Point", "coordinates": [11.1214805511468, 46.067844577687694]}}]}