{"type": "FeatureCollection", "name": "zone_parcheggio", "crs": null, "features": [{"type": "Feature", "properties": {"area": 202000.61938476562, "perimeter": 3208.179058514822, "zona": "cblu2", "fumetto": "Seconda corona blu", "descrizione": "Seconda corona blu", "pianopark": 10}, "geometry": {"type": "Polygon", "coordinates": [[[11.12499495362174, 46.076457631904766], [11.125149686325967, 46.07644575266665], [11.12510309152423, 46.076158610408676], [11.125180457454343, 46.07615267074958], [11.125250464051323, 46.07578685643146], [11.125396366405578, 46.07579764188825], [11.125406179540747, 46.07571645667633], [11.125445535741004, 46.07556271937858], [11.125494644316225, 46.075368299272476], [11.125627224871899, 46.0752848293065], [11.125901716436491, 46.075360723062005], [11.126080729242872, 46.07543389337255], [11.126161564325093, 46.07526588325433], [11.12629569917198, 46.07522288487962], [11.126551862001522, 46.07494810697952], [11.126694602473101, 46.07466644020441], [11.126793257351121, 46.07458360056917], [11.126788881461735, 46.07438567565097], [11.126621184416454, 46.0741862916704], [11.126272798210396, 46.074080274304166], [11.12600350417984, 46.07401328497768], [11.126260646958139, 46.07367998753671], [11.126278016636522, 46.073585161107225], [11.126192126228784, 46.073411254363855], [11.125866645438554, 46.07335431095502], [11.125813175322673, 46.073224801941635], [11.125515441229718, 46.07321684270067], [11.125443046286671, 46.07314168745607], [11.12548000832911, 46.07338850765309], [11.125469098572086, 46.073483213746435], [11.125460547021946, 46.07368137930904], [11.125423498382645, 46.0738530742992], [11.125290894107074, 46.074314556721205], [11.12524888639267, 46.074441342461405], [11.125231920819358, 46.07450466018283], [11.124994526436, 46.074468575922324], [11.124493720441516, 46.074392389723485], [11.124616009884528, 46.073872598225684], [11.124583288727267, 46.07331518881299], [11.124427104638325, 46.07286807938502], [11.12420642320687, 46.072467170753235], [11.123789667746736, 46.07260092511169], [11.122205931166002, 46.073116379205075], [11.122075970316539, 46.073015290568016], [11.121809163856296, 46.072970745860616], [11.12141384952423, 46.072357068942495], [11.121513687502778, 46.07209420601104], [11.1205381297052, 46.072409332386314], [11.120134761036807, 46.07247082250824], [11.119372469688148, 46.07270540890886], [11.119653430968754, 46.07312502177209], [11.11997667225633, 46.07359595054204], [11.12062645553266, 46.07357186439407], [11.12139795568951, 46.07461960401623], [11.121757065378477, 46.07550337743226], [11.12153997272959, 46.07552640369611], [11.121590526244464, 46.075800675590344], [11.121671684015174, 46.075901022740204], [11.121802137149807, 46.07629937913307], [11.122049235297702, 46.07703623097359], [11.122620780536062, 46.07677311930417], [11.122659628014732, 46.07718520045574], [11.123001923981791, 46.07725097879612], [11.122946682092929, 46.07731212255254], [11.122552163834492, 46.07783646073793], [11.122445757649034, 46.07821517098326], [11.122255192541749, 46.078952138810266], [11.122134897874535, 46.079419278287595], [11.121894725508593, 46.07946381844511], [11.121762751119306, 46.07962658201107], [11.122228374881052, 46.07975419626476], [11.123073591498096, 46.079718449253754], [11.123001888500328, 46.08040110727938], [11.123416714571327, 46.08040541926237], [11.123423503659124, 46.079832178269584], [11.123631342608691, 46.079395472109056], [11.123616735515437, 46.07901500307277], [11.123367275219527, 46.07896753970098], [11.123558462023158, 46.07854717438969], [11.123840208606323, 46.07838563156909], [11.12406508504747, 46.07809288839414], [11.124413488449145, 46.07771769123562], [11.124608816400478, 46.07740545756114], [11.124716066179149, 46.07719906480094], [11.124924313316926, 46.07722324520584], [11.125073383056604, 46.07705615203962], [11.125082031428231, 46.07683155445644], [11.12499495362174, 46.076457631904766]]]}}, {"type": "Feature", "properties": {"area": 675271.2983398438, "perimeter": 4156.525901271876, "zona": "viola", "fumetto": "Area periferica viola Bolghera", "descrizione": "Area periferica viola Bolghera", "pianopark": 14}, "geometry": {"type": "Polygon", "coordinates": [[[11.123361141624333, 46.055006900344296], [11.124516007196478, 46.056271005510965], [11.126664440884491, 46.058547569502544], [11.127069888585675, 46.05881193610832], [11.12830312287652, 46.05965376100096], [11.130004279642657, 46.0608194969741], [11.131950046903162, 46.06215819501461], [11.133829718733098, 46.063428333948565], [11.134540478629182, 46.06392688797199], [11.135844128195535, 46.064809696786334], [11.136800295727893, 46.065475325473464], [11.137268009046972, 46.06588440319465], [11.13736250768419, 46.06224084693893], [11.13829360978054, 46.06222342372292], [11.13838839554201, 46.061201973734], [11.137902702624942, 46.06120006979937], [11.137681804735314, 46.06031562644899], [11.137406109957611, 46.059866670541815], [11.137015808837544, 46.05989863133185], [11.136960660262336, 46.05963458557817], [11.136836799456358, 46.05915222893425], [11.137202206447258, 46.05909873395082], [11.137139369861453, 46.05874588565681], [11.13677181873276, 46.05880258783882], [11.13666317012748, 46.0583401311958], [11.136571999247202, 46.05792132282364], [11.136481602517767, 46.05768389784839], [11.136384717121164, 46.05751327911194], [11.136181506611441, 46.0572140269149], [11.135917716494436, 46.05682318158107], [11.135767884211173, 46.056520904283374], [11.135707515774133, 46.05618397291535], [11.135808304370519, 46.055624152404285], [11.13584804134554, 46.055323827926294], [11.135906841203253, 46.0551083491347], [11.13620825453302, 46.05478905367706], [11.135993122167076, 46.05466671437704], [11.135900286749633, 46.054604601745325], [11.135722156212953, 46.054464903996575], [11.135566638340649, 46.05436858067964], [11.135390915575908, 46.05430025090629], [11.135066008993594, 46.05449466984854], [11.134821721374204, 46.054609173160074], [11.13456070066967, 46.05469925249157], [11.134201058422518, 46.0547911736041], [11.133855501006993, 46.054838855225725], [11.1335797860245, 46.05485499847767], [11.133283394467606, 46.05484679106023], [11.132792013665773, 46.054798247923465], [11.132312150880209, 46.05474124233147], [11.131833134844195, 46.05470620656265], [11.131316150928006, 46.0547103554745], [11.13091877996498, 46.05474525253051], [11.130663633878804, 46.05478299272207], [11.13020194649765, 46.05489054658329], [11.12982746655851, 46.05500746665535], [11.12942353831949, 46.055179903479555], [11.128981003446512, 46.05537504594952], [11.128513529222156, 46.05553766988917], [11.128090224681582, 46.05561701552086], [11.127736871930566, 46.05566757226017], [11.127342803267064, 46.05568590462165], [11.12695514724443, 46.055665637875705], [11.126582638256496, 46.0556285971401], [11.126176672353273, 46.05554270566874], [11.125713159689994, 46.05539741751732], [11.125282051719953, 46.0552735123074], [11.124803396344616, 46.05514499288288], [11.124446250103452, 46.05509666563551], [11.124034086932033, 46.055054857057094], [11.123361141624333, 46.055006900344296]]]}}, {"type": "Feature", "properties": {"area": 74344.19091796875, "perimeter": 1843.4384477533051, "zona": "verde", "fumetto": "ZTL verde", "descrizione": "ZTL verde", "pianopark": 2}, "geometry": {"type": "Polygon", "coordinates": [[[11.122318078909561, 46.06676908649841], [11.12232511969731, 46.06674195476391], [11.1223817278325, 46.066574397285635], [11.122401861934266, 46.06655152238676], [11.122411207659669, 46.06654234841551], [11.122425053768012, 46.06652409051193], [11.122434227010363, 46.06651041959354], [11.122464804452774, 46.06646484986057], [11.122504900013803, 46.06641460308673], [11.122566744568713, 46.06634145135814], [11.122598011759214, 46.066313869372124], [11.122619933271807, 46.06629546136604], [11.122667006459729, 46.066258585308034], [11.122782164239185, 46.0660584383917], [11.122817068934449, 46.06599928768087], [11.122926110322725, 46.065808254594096], [11.122945553881394, 46.06576739182735], [11.123003366843886, 46.06563131267543], [11.123015252420295, 46.06560409083738], [11.123035965893058, 46.065554204145926], [11.123064064654425, 46.06548617956303], [11.123093778427622, 46.06541812495115], [11.123098278618007, 46.06540904099482], [11.12310566391718, 46.065390903104394], [11.123108330877828, 46.065382534586384], [11.123059499352006, 46.06537973977586], [11.123017132143614, 46.06538027025838], [11.122982899113095, 46.06538069888088], [11.122961670469163, 46.06526866941222], [11.122951607844854, 46.065215565964444], [11.122949206558648, 46.06520289364946], [11.122933589985927, 46.06512048010588], [11.122935903565441, 46.06505433242165], [11.122221482065324, 46.06515869301268], [11.12123713049359, 46.0653149359114], [11.12123589907108, 46.06527819720922], [11.121240616646006, 46.065418942630544], [11.121251586294104, 46.06568684322755], [11.12126988941277, 46.065861527285676], [11.121280205780673, 46.065919837640095], [11.121880848396781, 46.06590418016471], [11.121848529105952, 46.066030784818736], [11.121812743751269, 46.066193455057515], [11.121214530043895, 46.06614606495103], [11.121200102753741, 46.066191334405715], [11.12115936148252, 46.06630909497118], [11.121018157803443, 46.06629371670905], [11.121028148545712, 46.066217028614986], [11.120753817307959, 46.06618612163145], [11.12064347331659, 46.066174670037505], [11.120452029612945, 46.06615572374194], [11.120192407159218, 46.06612904247962], [11.119333857346305, 46.06603688445758], [11.119232244868652, 46.066544337009034], [11.119181710330212, 46.06677762201652], [11.119172529820613, 46.066817446819954], [11.119151630407945, 46.06691888898617], [11.119142282617668, 46.06696243622946], [11.119132354762508, 46.06700861531061], [11.119122847982204, 46.06707593843626], [11.119112621939442, 46.06712280992174], [11.119095886756075, 46.067207732030575], [11.119040313412281, 46.06745132707827], [11.118999237804687, 46.06764015969464], [11.118952870555434, 46.067855062966], [11.118939665055978, 46.067875516260536], [11.118924329052103, 46.06797521096209], [11.118918305423712, 46.06806327823785], [11.118911798502342, 46.068115818520795], [11.118882177718833, 46.06826213890107], [11.11886134085281, 46.068352657449125], [11.118821420152988, 46.06842665161882], [11.118808800071996, 46.06851430067748], [11.118795123992793, 46.068631397682594], [11.118780201296172, 46.06873297686189], [11.118764921463592, 46.06876041132471], [11.118758988116866, 46.06877435532841], [11.118752600760129, 46.06880560614966], [11.118746538044299, 46.06883130674993], [11.118744406789151, 46.06885248961753], [11.118742093016598, 46.06886975116473], [11.118734436584093, 46.06890875386204], [11.118728995619746, 46.06894691369266], [11.118720481833062, 46.068981570999554], [11.118705162306112, 46.0690589729176], [11.118683277081969, 46.06915911321293], [11.118666910738684, 46.06917380989332], [11.118628715493669, 46.06921415456476], [11.118618646952033, 46.06925911507008], [11.118594549431377, 46.069393567769936], [11.118558879993168, 46.0694584920578], [11.11854492182515, 46.06949294916172], [11.11851584591408, 46.069542945783816], [11.11848438939117, 46.069591149985605], [11.11843862490712, 46.069654782467296], [11.118390282167056, 46.06969920796972], [11.118380817333486, 46.069733884082595], [11.1183775489472, 46.06974585839146], [11.11835814201876, 46.06981056750653], [11.11834276741438, 46.06987328635685], [11.118431914512659, 46.069892093620126], [11.118803260711164, 46.06993212101047], [11.118823455041548, 46.069858674507344], [11.118921321411072, 46.06986977425604], [11.118930025276336, 46.069922114667754], [11.11926863272184, 46.06995661056412], [11.119695962407922, 46.06999488046736], [11.119708778694854, 46.07002195012466], [11.11976723319905, 46.07002673571296], [11.119776841031928, 46.06998896480853], [11.119861971201505, 46.06965429370668], [11.119878941658586, 46.069590976652336], [11.119846529967099, 46.069546576748444], [11.119890678869323, 46.06943325361626], [11.119904009649513, 46.06940150514868], [11.11997770554522, 46.06921563118492], [11.119992974224946, 46.068981340054904], [11.119999736377444, 46.068904712012554], [11.120010827182059, 46.068814503175396], [11.120026828034932, 46.068683701857445], [11.120048255755153, 46.068525798907324], [11.120365215247219, 46.06827690697269], [11.120487923845717, 46.06818912599673], [11.12050517363983, 46.06817530528813], [11.120524038586211, 46.06816145458945], [11.120539673202304, 46.06814766386346], [11.120556922970671, 46.06813384314743], [11.12057255757085, 46.06812005241716], [11.120805007435342, 46.067859227830766], [11.120854687999223, 46.067763802173786], [11.120883307553562, 46.067709268933214], [11.120964128799514, 46.067667266749666], [11.121059352037857, 46.06736848851928], [11.121063163238528, 46.06734141684273], [11.121091003380991, 46.067097891726306], [11.121023231808117, 46.06705864896473], [11.121037850993318, 46.066891871924604], [11.12102772624675, 46.06671205394451], [11.12157848135085, 46.066701824662864], [11.121948279926455, 46.066735456183224], [11.122318078909561, 46.06676908649841]]]}}, {"type": "Feature", "properties": {"area": 462583.4890136719, "perimeter": 3719.440361417255, "zona": "crosso2", "fumetto": "Seconda corona rossa", "descrizione": "Seconda corona rossa", "pianopark": 9}, "geometry": {"type": "Polygon", "coordinates": [[[11.136294025280684, 46.06637018278829], [11.136192920020951, 46.066399045814684], [11.135918149717236, 46.06624817592677], [11.135657182663362, 46.06633885854206], [11.13599833655186, 46.06681610309361], [11.136712796352805, 46.06665044832939], [11.136870670526218, 46.06660407046101], [11.137012559318647, 46.06639048760956], [11.13725689980378, 46.06613219525172], [11.137268009046972, 46.06588440319465], [11.136800295727893, 46.065475325473464], [11.135844128195535, 46.064809696786334], [11.134540478629182, 46.06392688797199], [11.133829718733098, 46.063428333948565], [11.131950046903162, 46.06215819501461], [11.130004279642657, 46.0608194969741], [11.12830312287652, 46.05965376100096], [11.127069888585675, 46.05881193610832], [11.126686914243486, 46.05916971128979], [11.126132656331652, 46.059687763195825], [11.125297676271268, 46.06050602882739], [11.124161782247784, 46.061618156449235], [11.12395968899172, 46.06183035720945], [11.123845213989927, 46.062333634557625], [11.123586726815304, 46.06351948005263], [11.123284131678831, 46.06486106769734], [11.12327691903636, 46.06488370254289], [11.123336697033507, 46.06488259483859], [11.123329594725128, 46.06495022915265], [11.12464633905086, 46.06485373954112], [11.124731408335604, 46.06496466080042], [11.125854118153562, 46.064781763727545], [11.127258821859376, 46.06453510170871], [11.127873258325861, 46.064425822031026], [11.128026417197452, 46.064668098775265], [11.128115077563663, 46.064820660572316], [11.128504534895335, 46.06490340622378], [11.129145799276968, 46.06607048978329], [11.12924895172265, 46.06686059700936], [11.129197671402062, 46.066956056176146], [11.129431459362275, 46.06723520708074], [11.129132833584626, 46.06737127875509], [11.128983836628423, 46.06753156149368], [11.129101919356442, 46.06754747789684], [11.129288381414655, 46.06763795993741], [11.129571113038654, 46.06765774408506], [11.129747726598346, 46.06764818700663], [11.13001934926727, 46.06745729339811], [11.130376054719575, 46.06720623234773], [11.130580481021138, 46.06708449994944], [11.130762943841388, 46.06701108157932], [11.130908174284714, 46.06696915345576], [11.131832696573799, 46.06659188848316], [11.132173823690504, 46.06646851674414], [11.132400686241468, 46.066441780590985], [11.132782369296965, 46.06644815422173], [11.133199757894294, 46.06645835984585], [11.133361322512771, 46.06641484075475], [11.133463529862764, 46.06634092916598], [11.133452790063188, 46.06618812462055], [11.133363440043457, 46.066176293157234], [11.133367473356396, 46.06611321569306], [11.133409630087495, 46.06599092414091], [11.133462398739203, 46.06585043373483], [11.133539402452955, 46.06583549484278], [11.13362137007087, 46.065865464688564], [11.133801099812343, 46.06579010455664], [11.134027785280633, 46.065758868318426], [11.134171417913974, 46.06575351064894], [11.134282455795177, 46.06568142124743], [11.13438678312543, 46.06557260740604], [11.134481169121257, 46.06548056163964], [11.134557820917447, 46.06540911459154], [11.134699816460445, 46.065316178839566], [11.134734786907403, 46.06526209309451], [11.134914505051544, 46.065255048883735], [11.135096655040503, 46.06524243146795], [11.135259934735394, 46.06522095411792], [11.135569179004998, 46.06525836512053], [11.135687721044341, 46.06536311349061], [11.135787162010566, 46.0655025609934], [11.135863946172217, 46.065738109668914], [11.136081144094003, 46.065971099690806], [11.136294025280684, 46.06637018278829]]]}}, {"type": "Feature", "properties": {"area": 574086.2395019531, "perimeter": 5053.727035422996, "zona": "giallo4", "fumetto": "Area periferica gialla Cristo Re e Piedicastello", "descrizione": "Area periferica gialla Cristo Re e Piedicastello", "pianopark": 13}, "geometry": {"type": "Polygon", "coordinates": [[[11.112572329191197, 46.08339775966009], [11.113059078294718, 46.083479938279076], [11.113538936831084, 46.083594204170105], [11.11363081322785, 46.08361686182343], [11.11408394081484, 46.083749736175875], [11.11447522351329, 46.08391297782841], [11.114982587199641, 46.0841158963146], [11.115722290305232, 46.084384157625095], [11.117115880554625, 46.08488953887873], [11.117804185592892, 46.083822467690695], [11.117940039810232, 46.08319261709975], [11.118342703704421, 46.08231498025767], [11.119384946452636, 46.08105110285166], [11.121732392944033, 46.07824610273625], [11.121794786292678, 46.07802274660638], [11.121680363913278, 46.07688919526882], [11.118446194704493, 46.07211024033074], [11.117384882862538, 46.07023697312157], [11.116877726959041, 46.070297634344655], [11.116332647868864, 46.07000869988336], [11.11623632947623, 46.069817597192895], [11.11610475508812, 46.069712960373984], [11.115819823524113, 46.069738483673156], [11.115696608548404, 46.06990111073664], [11.114411259510472, 46.07021300952759], [11.11428118225027, 46.0702187827135], [11.11413442306018, 46.070115756901444], [11.11370806655256, 46.069923515861426], [11.112337921204727, 46.06934148632456], [11.112031881573088, 46.069756732311944], [11.111666804509305, 46.06967946498863], [11.111588614678093, 46.069805186776684], [11.111083616247154, 46.07057730259202], [11.111114955433361, 46.070704880463666], [11.111182476554665, 46.070892672196294], [11.112009387502752, 46.071012162609684], [11.11260266093093, 46.07133551083985], [11.11298038239953, 46.07141429161231], [11.113449429283607, 46.07164541368361], [11.11360527988379, 46.07130442262075], [11.113827381444878, 46.07135039900143], [11.114089474217279, 46.07140831371075], [11.114179252559014, 46.07108030846922], [11.115041457910927, 46.07106384125188], [11.114571978935773, 46.070294935618186], [11.115727870819478, 46.07000112817292], [11.116203141554237, 46.07084891292272], [11.1168241085266, 46.07260660146849], [11.116914587267159, 46.073655930994626], [11.116683714472497, 46.07551698197236], [11.115815339664385, 46.07746924626917], [11.11510743712435, 46.078451782604155], [11.114408573930772, 46.07919178885142], [11.113145719370568, 46.080262865916566], [11.113410086167075, 46.0808222317208], [11.113677177776147, 46.08138735521759], [11.1137236095071, 46.08197099188351], [11.113564381436552, 46.08243256059776], [11.11309190563401, 46.082992529676034], [11.112631518891119, 46.083330351791936], [11.112572329191197, 46.08339775966009]]]}}, {"type": "Feature", "properties": {"area": 703297.6770019531, "perimeter": 3770.1701402754707, "zona": "cverde2", "fumetto": "Seconda corona verde", "descrizione": "Seconda corona verde", "pianopark": 11}, "geometry": {"type": "Polygon", "coordinates": [[[11.122598422053288, 46.06350126699502], [11.123042505652123, 46.06340751010293], [11.123281528520609, 46.06340306677118], [11.123453458896861, 46.063503373861785], [11.123586726815304, 46.06351948005263], [11.123845213989927, 46.062333634557625], [11.12395968899172, 46.06183035720945], [11.124161782247784, 46.061618156449235], [11.125297676271268, 46.06050602882739], [11.126132656331652, 46.059687763195825], [11.126686914243486, 46.05916971128979], [11.127069888585675, 46.05881193610832], [11.126664440884491, 46.058547569502544], [11.124516007196478, 46.056271005510965], [11.123361141624333, 46.055006900344296], [11.123275077016757, 46.05490685077057], [11.121922330218414, 46.05332278253655], [11.120825203362314, 46.05185308382483], [11.120212052413454, 46.05057336298011], [11.119598447203627, 46.0510111014396], [11.11904532060884, 46.05148713055273], [11.118516299373303, 46.05202620185589], [11.117944053620517, 46.05293761910607], [11.117477139629909, 46.05390267764871], [11.117256480271953, 46.05459000442241], [11.117033599798154, 46.05607535221024], [11.116933311807655, 46.056968292518626], [11.116845057913363, 46.05749725665846], [11.116742265099498, 46.05839533800444], [11.116595450125967, 46.05934779368951], [11.116431625931293, 46.060211018228905], [11.116297713509775, 46.0612348763579], [11.116290520410294, 46.06129431539984], [11.116853859034215, 46.06133878837887], [11.1168040618193, 46.061686759657185], [11.11722476153036, 46.061714105815525], [11.11717442511396, 46.06196544086802], [11.11772490691056, 46.062003558361624], [11.118227757297948, 46.062033770574345], [11.118791188711738, 46.062080428785], [11.118772226180859, 46.062162051383844], [11.119009547379806, 46.06217961362523], [11.118973884685762, 46.06273159887092], [11.11894529124566, 46.06297374525179], [11.118866883302164, 46.06298618243108], [11.118790479983973, 46.06354551287823], [11.119357755017848, 46.06357944818652], [11.119647901077116, 46.063475060450784], [11.119959191635889, 46.063500783919686], [11.12162598737142, 46.06364083930318], [11.121766195585778, 46.06371473728443], [11.12195586109886, 46.06360320999096], [11.122267624182975, 46.063556915948155], [11.122598422053288, 46.06350126699502]]]}}, {"type": "Feature", "properties": {"area": 221276.96850585938, "perimeter": 3578.8919667501464, "zona": "cverde", "fumetto": "Prima corona verde", "descrizione": "Prima corona verde", "pianopark": 5}, "geometry": {"type": "Polygon", "coordinates": [[[11.11976723319905, 46.07002673571296], [11.119708778694854, 46.07002195012466], [11.119695962407922, 46.06999488046736], [11.119708778694854, 46.07002195012466], [11.119695962407922, 46.06999488046736], [11.11926863272184, 46.06995661056412], [11.118930025276336, 46.069922114667754], [11.118921321411072, 46.06986977425604], [11.118823455041548, 46.069858674507344], [11.118803260711164, 46.06993212101047], [11.118431914512659, 46.069892093620126], [11.11834276741438, 46.06987328635685], [11.11835814201876, 46.06981056750653], [11.1183775489472, 46.06974585839146], [11.118380817333486, 46.069733884082595], [11.118390282167056, 46.06969920796972], [11.11843862490712, 46.069654782467296], [11.11848438939117, 46.069591149985605], [11.11851584591408, 46.069542945783816], [11.11854492182515, 46.06949294916172], [11.118558879993168, 46.0694584920578], [11.118594549431377, 46.069393567769936], [11.118618646952033, 46.06925911507008], [11.118628715493669, 46.06921415456476], [11.118666910738684, 46.06917380989332], [11.118683277081969, 46.06915911321293], [11.118705162306112, 46.0690589729176], [11.118720481833062, 46.068981570999554], [11.118728995619746, 46.06894691369266], [11.118734436584093, 46.06890875386204], [11.118742093016598, 46.06886975116473], [11.118744406789151, 46.06885248961753], [11.118746538044299, 46.06883130674993], [11.118752600760129, 46.06880560614966], [11.118758988116866, 46.06877435532841], [11.118764921463592, 46.06876041132471], [11.118780201296172, 46.06873297686189], [11.118795123992793, 46.068631397682594], [11.118808800071996, 46.06851430067748], [11.118821420152988, 46.06842665161882], [11.11886134085281, 46.068352657449125], [11.118882177718833, 46.06826213890107], [11.118911798502342, 46.068115818520795], [11.118918305423712, 46.06806327823785], [11.118924329052103, 46.06797521096209], [11.118939665055978, 46.067875516260536], [11.118952870555434, 46.067855062966], [11.118999237804687, 46.06764015969464], [11.119040313412281, 46.06745132707827], [11.119095886756075, 46.067207732030575], [11.119112621939442, 46.06712280992174], [11.119122847982204, 46.06707593843626], [11.119132354762508, 46.06700861531061], [11.119142282617668, 46.06696243622946], [11.119151630407945, 46.06691888898617], [11.119172529820613, 46.066817446819954], [11.119181710330212, 46.06677762201652], [11.119232244868652, 46.066544337009034], [11.119333857346305, 46.06603688445758], [11.120249872731367, 46.06613427359925], [11.120422811275755, 46.066152721019755], [11.121028148545712, 46.066217028614986], [11.121018157803443, 46.06629371670905], [11.12115936148252, 46.06630909497118], [11.121200102753741, 46.066191334405715], [11.121214530043895, 46.06614606495103], [11.121812743751269, 46.066193455057515], [11.121848529105952, 46.066030784818736], [11.121880848396781, 46.06590418016471], [11.121280205780673, 46.065919837640095], [11.12126988941277, 46.065861527285676], [11.121251586294104, 46.06568684322755], [11.121240616646006, 46.065418942630544], [11.12123713049359, 46.0653149359114], [11.121764783870894, 46.06523118437901], [11.122163173887387, 46.0651679483383], [11.122478740380515, 46.06512111403237], [11.12277780579363, 46.06507742729603], [11.122887669372316, 46.06506137848302], [11.122935903565441, 46.06505433242165], [11.122933589985927, 46.06512048010588], [11.122949206558648, 46.06520289364946], [11.122961093596587, 46.06526562508789], [11.122982899113095, 46.06538069888088], [11.123034282358066, 46.065380055521345], [11.123059499352006, 46.06537973977586], [11.123108330877828, 46.065382534586384], [11.123126052878657, 46.065332025740794], [11.123220508394839, 46.065055760610385], [11.12322772108042, 46.06503312576827], [11.123255646830662, 46.06496060419688], [11.12327691903636, 46.06488370254289], [11.123284132270825, 46.064861066738175], [11.123586726815304, 46.06351948005263], [11.123453458896861, 46.063503373861785], [11.123281528520609, 46.06340306677118], [11.123042505652123, 46.06340751010293], [11.122598422053288, 46.06350126699502], [11.122267624182975, 46.063556915948155], [11.12195586109886, 46.06360320999096], [11.121766195585778, 46.06371473728443], [11.12162598737142, 46.06364083930318], [11.119959191635889, 46.063500783919686], [11.119647901077116, 46.063475060450784], [11.119357755017848, 46.06357944818652], [11.118790479983973, 46.06354551287823], [11.118789053448548, 46.06377210076833], [11.118748274362105, 46.06395462915457], [11.11871852367799, 46.0642588731019], [11.118623641578866, 46.06460865982127], [11.118572930783664, 46.064864524441916], [11.118038940835014, 46.06484595368815], [11.117705310286526, 46.064870140865395], [11.117392053654887, 46.064835447393584], [11.117092406040236, 46.06481850140585], [11.116663381237048, 46.06479945224929], [11.11577176486484, 46.06498247831512], [11.115751289707841, 46.06520786514761], [11.115746001490086, 46.06536546838054], [11.115722259585384, 46.06550541285137], [11.115757004756016, 46.065653274178246], [11.11576302223797, 46.06581066796681], [11.115784643773623, 46.06608027644183], [11.115842933955104, 46.06642120800554], [11.115824412262418, 46.066444051874285], [11.115896655828243, 46.066811725800065], [11.115948413466578, 46.06698177261708], [11.11600234783332, 46.06710731663356], [11.116059934272872, 46.067280750645516], [11.116100282114612, 46.06737647515314], [11.116187684863647, 46.06758340562346], [11.116265763584526, 46.067799420167276], [11.116314819421214, 46.06794594722893], [11.116055870494948, 46.06801060758996], [11.115852720703572, 46.06765146328196], [11.11526961454914, 46.067805863025136], [11.115442035965948, 46.068147864611554], [11.115386203710504, 46.06826681231241], [11.11550406812348, 46.06847017622182], [11.115678384787902, 46.06842500939252], [11.115769337554248, 46.06859764511542], [11.116284762167577, 46.068457176403925], [11.116080469817796, 46.06806191467379], [11.11631643204823, 46.06800241686085], [11.116464997562217, 46.06831774563905], [11.116587348029276, 46.068558486346525], [11.116856863078059, 46.06901250655038], [11.117035682029668, 46.0692927014776], [11.117219176379423, 46.06956830929795], [11.117395523400532, 46.069826048727236], [11.11758335073955, 46.07008807517318], [11.117853330689593, 46.07004706810568], [11.118060767216901, 46.070061222036216], [11.119022054136659, 46.07034490109935], [11.119206124790267, 46.070381987194594], [11.119340533115091, 46.0703884935008], [11.11946727475824, 46.070363640887194], [11.11955600478014, 46.0703169928129], [11.11960077908768, 46.070262160120706], [11.119680939642569, 46.07015398485325], [11.119702214947944, 46.07012527412195], [11.119772078619645, 46.07009247646104], [11.119762279738195, 46.07004765684721], [11.11976723319905, 46.07002673571296]]]}}, {"type": "Feature", "properties": {"area": 126423.08374023438, "perimeter": 2146.795456071618, "zona": "cblu", "fumetto": "Prima corona blu", "descrizione": "Prima corona blu", "pianopark": 4}, "geometry": {"type": "Polygon", "coordinates": [[[11.124994526436, 46.074468575922324], [11.125231920819358, 46.07450466018283], [11.12524888639267, 46.074441342461405], [11.125290894107074, 46.074314556721205], [11.125423498382645, 46.0738530742992], [11.125460547021946, 46.07368137930904], [11.125469098572086, 46.073483213746435], [11.12548000832911, 46.07338850765309], [11.125443046286671, 46.07314168745607], [11.125515441229718, 46.07321684270067], [11.125813175322673, 46.073224801941635], [11.125866645438554, 46.07335431095502], [11.12663092362678, 46.07317807761932], [11.126891700007857, 46.0726872059139], [11.127007665115853, 46.07242403783638], [11.127084744081682, 46.07224259648726], [11.12722453139779, 46.07201048553961], [11.127056375901873, 46.07188311302987], [11.126580731396823, 46.0720404750434], [11.126444417336508, 46.071984511120114], [11.126383728534078, 46.07200364160263], [11.126323212512451, 46.072027268983234], [11.126105955390171, 46.07209431551893], [11.125999483978024, 46.07213397974779], [11.125914955477635, 46.072003367758825], [11.125757350383651, 46.07202430181416], [11.125604418203958, 46.07204064853834], [11.125164953005534, 46.07200382499785], [11.125127629107336, 46.07200001932193], [11.1250813045081, 46.0720143816994], [11.125034289002686, 46.07201075632047], [11.12501115709367, 46.07199768626347], [11.12485189562363, 46.07180714297505], [11.124688389629526, 46.07133766928113], [11.124552474850388, 46.07137619876534], [11.12446369730659, 46.07133734880323], [11.12449912132778, 46.07129168840979], [11.124375560466973, 46.071230984643385], [11.124224022770335, 46.07115730063587], [11.124111941843518, 46.071100883219096], [11.124034126473928, 46.07105282875557], [11.124001242177489, 46.07108044118551], [11.12394292082654, 46.071077025608744], [11.123888002586474, 46.07107804686645], [11.123778683931558, 46.071093580116234], [11.123749215256776, 46.070999624977674], [11.12371102909819, 46.07097333413887], [11.123668169861034, 46.07095163032523], [11.12360373289772, 46.070957328582786], [11.123600391697881, 46.070912389230664], [11.123553956892248, 46.07088175156009], [11.12350226930622, 46.070882712565535], [11.1234742305508, 46.070910234753995], [11.123471752386015, 46.07088778009034], [11.123350906276425, 46.070813524297925], [11.123216041082076, 46.070753029433654], [11.12306168311992, 46.070647895275776], [11.123080859557207, 46.0704315317189], [11.122794212213915, 46.07045936049114], [11.122737381762605, 46.07053691924915], [11.122397509685538, 46.070399230761], [11.122342074590993, 46.070386760437], [11.122245569000828, 46.0703570526476], [11.122147793238389, 46.070336368672734], [11.121960145573635, 46.07029035347958], [11.121776073539309, 46.070253271848436], [11.121680258214537, 46.070241551349376], [11.121576775055722, 46.070198472169096], [11.121486731058898, 46.070168643710716], [11.121300118904918, 46.07014960908584], [11.12093156822782, 46.07010695198474], [11.120587418668116, 46.0700683407931], [11.120126629403623, 46.0700228934877], [11.119776841031928, 46.06998896480853], [11.11976723319905, 46.07002673571296], [11.119762279738195, 46.07004765684721], [11.119772078619645, 46.07009247646104], [11.119702214947944, 46.07012527412195], [11.119708351076444, 46.070665177944974], [11.119540405336036, 46.07142881960105], [11.119507496233833, 46.07158243530078], [11.119552593919758, 46.07166260103923], [11.119751507834474, 46.071960419296076], [11.120134761036807, 46.07247082250824], [11.1205381297052, 46.072409332386314], [11.121513687502778, 46.07209420601104], [11.12141384952423, 46.072357068942495], [11.121809163856296, 46.072970745860616], [11.122075970316539, 46.073015290568016], [11.122205931166002, 46.073116379205075], [11.123789667746736, 46.07260092511169], [11.12420642320687, 46.072467170753235], [11.124427104638325, 46.07286807938502], [11.124583288727267, 46.07331518881299], [11.124616009884528, 46.073872598225684], [11.124493720441516, 46.074392389723485], [11.124994526436, 46.074468575922324]]]}}, {"type": "Feature", "properties": {"area": 139902.44580078125, "perimeter": 3058.7077774404297, "zona": "crosso", "fumetto": "Prima corona rossa", "descrizione": "Prima corona rossa", "pianopark": 6}, "geometry": {"type": "Polygon", "coordinates": [[[11.127931787965839, 46.067337022472], [11.128328951680198, 46.06778426423637], [11.128548259799713, 46.067709507721105], [11.128983836628423, 46.06753156149368], [11.129132833584626, 46.06737127875509], [11.129431459362275, 46.06723520708074], [11.129197671402062, 46.066956056176146], [11.12924895172265, 46.06686059700936], [11.129145799276968, 46.06607048978329], [11.128504534895335, 46.06490340622378], [11.128115077563663, 46.064820660572316], [11.128026417197452, 46.064668098775265], [11.127873258325861, 46.064425822031026], [11.127258821859376, 46.06453510170871], [11.125854118153562, 46.064781763727545], [11.124731408335604, 46.06496466080042], [11.12464633905086, 46.06485373954112], [11.123329594725128, 46.06495022915265], [11.123336697033507, 46.06488259483859], [11.12327691903636, 46.06488370254289], [11.123255646830662, 46.06496060419688], [11.12322772108042, 46.06503312576827], [11.123220508394839, 46.065055760610385], [11.123126052878657, 46.065332025740794], [11.123108330877828, 46.065382534586384], [11.123178835680637, 46.065386569802094], [11.123436678622, 46.06538079558996], [11.12357764174963, 46.065377638573025], [11.123580323983612, 46.06537757849989], [11.12377303579336, 46.06538749566592], [11.124148263136004, 46.06540551381749], [11.124443403572762, 46.06542002981107], [11.12460219901827, 46.06543057644202], [11.124642785418349, 46.06543958919778], [11.124630975242132, 46.065506543713376], [11.12471688728998, 46.06552784019875], [11.124769260470947, 46.065544866487], [11.124800842725774, 46.06555288531252], [11.12482252942078, 46.065570482459556], [11.124840813302589, 46.065583642757794], [11.124851367116417, 46.06560594716855], [11.124855460609332, 46.06562837176859], [11.124828115763336, 46.06567388201136], [11.124813925334918, 46.06568314631336], [11.124799562239899, 46.06568791367444], [11.124686506337596, 46.06569001689391], [11.124685175347258, 46.065739543317946], [11.124653714804719, 46.0660146377889], [11.125078596185315, 46.066051734624295], [11.125375540130477, 46.0660822104219], [11.125700321416835, 46.06650762152087], [11.12573596433819, 46.0665350456919], [11.126065220905486, 46.0670523609308], [11.126419549766306, 46.06762145960193], [11.12654697523543, 46.06767145924239], [11.126648948927768, 46.06788556774002], [11.12679303063031, 46.068143893542846], [11.126932095379791, 46.06839781243385], [11.12700961764055, 46.068522372941494], [11.127072258016781, 46.06863821025213], [11.127160509206744, 46.06878957173749], [11.127222285828978, 46.06888292430212], [11.127341631204374, 46.06900220546475], [11.12720139218083, 46.06918032329535], [11.127134937448949, 46.06921756217542], [11.127135683156384, 46.06932105171625], [11.127174156188522, 46.06939683771293], [11.127180384778402, 46.0694327229], [11.127201150105025, 46.06946833734372], [11.1272109548693, 46.06951315622102], [11.127218393669391, 46.06958051990769], [11.127166060188188, 46.06990100516652], [11.127051894017749, 46.070042636001], [11.126881540526636, 46.07019431334715], [11.126816467203515, 46.07026752749674], [11.126743490468549, 46.07034538892435], [11.126753175885531, 46.07047121272571], [11.126623141269565, 46.07066264022803], [11.126561279359159, 46.07075887286834], [11.126482908935797, 46.07097111228951], [11.126304934005748, 46.07124251449384], [11.126116869330852, 46.07153931945111], [11.126060914203501, 46.07161379996063], [11.125954422588839, 46.07173936472641], [11.125803301194276, 46.071900821448885], [11.125533527684931, 46.07192046387465], [11.125301447683018, 46.071938283116374], [11.125164953005534, 46.07200382499785], [11.125604418203958, 46.07204064853834], [11.125757350383651, 46.07202430181416], [11.125914955477635, 46.072003367758825], [11.125999483978024, 46.07213397974779], [11.126105955390171, 46.07209431551893], [11.126323212512451, 46.072027268983234], [11.126383728534078, 46.07200364160263], [11.126444417336508, 46.071984511120114], [11.126580731396823, 46.0720404750434], [11.127056375901873, 46.07188311302987], [11.126944065014403, 46.07182788271862], [11.127187205206141, 46.071602184800774], [11.127594368393261, 46.07096447553088], [11.127657607797781, 46.07081961917772], [11.127933272738698, 46.07089273497839], [11.127872071864129, 46.07111681726849], [11.127846318947144, 46.071180023881894], [11.12782079685538, 46.07128684797002], [11.127798653753533, 46.07140930638484], [11.127783972746553, 46.07146858350931], [11.127781992355946, 46.07151145716374], [11.127804684499205, 46.071548953394256], [11.127819818759475, 46.07157063704769], [11.127857917285706, 46.07159592531107], [11.127902465303864, 46.0716088763753], [11.127944491147089, 46.07161632476784], [11.12801842186196, 46.07161000665669], [11.128091074324725, 46.07158451351649], [11.128152515169331, 46.071551588673636], [11.128204966621738, 46.07151757554927], [11.128263663043194, 46.071498371048214], [11.128327285031657, 46.07149206558047], [11.128396880343526, 46.07150520526872], [11.128461547411355, 46.071527876590466], [11.12853535474789, 46.071561204365366], [11.128581111852874, 46.07159590539567], [11.128628234066403, 46.07159563576654], [11.128735063125237, 46.07152619583088], [11.128809837272835, 46.07147074537356], [11.128847318353776, 46.071410784416244], [11.128839406474215, 46.07136462469267], [11.128868128369728, 46.071276996256366], [11.128923588349668, 46.071185586210014], [11.128991509767358, 46.07107542994624], [11.129061593212475, 46.07095425397496], [11.129159908886734, 46.070787773194844], [11.129269062382185, 46.070605117971134], [11.12870146830515, 46.07041873493621], [11.12855178215915, 46.07023978816841], [11.128023026080234, 46.069970108042426], [11.127889748062092, 46.06957877217721], [11.12766982711952, 46.06900993743078], [11.127456034492825, 46.06860037513722], [11.126975012996633, 46.067678858213014], [11.127140728690767, 46.06748192282467], [11.127931787965839, 46.067337022472]]]}}, {"type": "Feature", "properties": {"area": 104812.7900390625, "perimeter": 1783.3455215300435, "zona": "blu", "fumetto": "ZTL blu", "descrizione": "ZTL blu", "pianopark": 1}, "geometry": {"type": "Polygon", "coordinates": [[[11.125127629107336, 46.07200001932193], [11.125099884859308, 46.071951033930674], [11.125031707915097, 46.07181729801991], [11.124974665410903, 46.07167885476062], [11.124944848951097, 46.071575906112116], [11.124927091096719, 46.07145023237012], [11.124830724654412, 46.071087513263805], [11.124812845284232, 46.07104284441375], [11.124805693544582, 46.071024976872714], [11.124780662493636, 46.07096244047454], [11.124778773235178, 46.07078696985944], [11.12477646723983, 46.07076901216787], [11.124774161246195, 46.070751054476155], [11.124770240022842, 46.070733126833254], [11.124767934033112, 46.0707151691412], [11.124764185503842, 46.07070173843317], [11.124760264287774, 46.07068381078964], [11.12475472784497, 46.07066591319454], [11.12474919140598, 46.07064801559905], [11.124743654970732, 46.07063011800316], [11.1247381185393, 46.07061222040691], [11.124732582111612, 46.07059432281028], [11.124725430460812, 46.070576455261474], [11.124718278814843, 46.07055858771206], [11.124711127173672, 46.070540720162036], [11.124703975537322, 46.07052285261152], [11.124614519340936, 46.07034001065101], [11.12458072206393, 46.07025963668058], [11.124523855090922, 46.07012569004997], [11.124460171101164, 46.070108874045644], [11.124407966297232, 46.070096344638166], [11.124458132657455, 46.069676897717905], [11.124463557510264, 46.069649795920185], [11.124466097276342, 46.069631748084234], [11.124468637041007, 46.06961370024824], [11.12446956160565, 46.069595682456224], [11.124470486169914, 46.069577664664145], [11.12447106541697, 46.06955065299806], [11.124470029467469, 46.06952367137587], [11.124467723639343, 46.06950571367172], [11.124454345387802, 46.069451960733765], [11.124441312474156, 46.06940720166784], [11.124432027928668, 46.069375873324695], [11.124422570741086, 46.06934004804312], [11.12439777493377, 46.069241505980514], [11.124351118579112, 46.069120869771346], [11.124277299849368, 46.06892423620971], [11.12427014857963, 46.068906368621235], [11.124266227671006, 46.06888844095049], [11.124260691587486, 46.06887054332028], [11.124256770684845, 46.06885261564906], [11.124252849784947, 46.06883468797758], [11.12424892888779, 46.06881676030585], [11.124246623168917, 46.06879880259343], [11.124242702276728, 46.06878087492128], [11.124242011736278, 46.06876288716808], [11.124239706022516, 46.06874492945525], [11.124229620017228, 46.06865061391052], [11.124204318864477, 46.06841257656646], [11.124200459517153, 46.06835414640278], [11.124010795018298, 46.06833967312942], [11.12388429453358, 46.06832852512468], [11.123885391885462, 46.068315004270396], [11.123677788220895, 46.068296363885814], [11.12348489370384, 46.0682819497977], [11.123402347912275, 46.06827898433192], [11.123311553764585, 46.06827167200052], [11.123167286778415, 46.068260853492646], [11.123005080541645, 46.06824586811048], [11.122940129058803, 46.0682380751157], [11.12290119268187, 46.06823429868947], [11.122808610983943, 46.06822251903424], [11.122712799002873, 46.06821079934051], [11.12268695644265, 46.06821127963461], [11.122673862657944, 46.06820702283613], [11.122637984136178, 46.06819868934005], [11.122613584240687, 46.06819464265649], [11.122557978832589, 46.068177675451885], [11.12248766453999, 46.06815648141477], [11.122475495989931, 46.06813420680204], [11.122466902738655, 46.06812086604566], [11.122438880712744, 46.06802238349847], [11.122422274526905, 46.0679686902984], [11.122405213758444, 46.06786100374855], [11.122246302108314, 46.06780545472034], [11.122110175287707, 46.0677539822751], [11.122105691449715, 46.06763706169549], [11.12210200685303, 46.06758312835975], [11.12211447367285, 46.06752889492676], [11.122143217918481, 46.067393356353186], [11.122163823353702, 46.06729847034394], [11.122179002948233, 46.0672306860462], [11.122222972902366, 46.06711286513849], [11.122238669767443, 46.06705857166945], [11.122245538163604, 46.06702694299429], [11.12230203726311, 46.066814386087174], [11.122318078909561, 46.06676908649841], [11.121948279926455, 46.066735456183224], [11.12157848135085, 46.066701824662864], [11.12102772624675, 46.06671205394451], [11.121037850993318, 46.066891871924604], [11.121023231808117, 46.06705864896473], [11.121091003380991, 46.067097891726306], [11.121063163238528, 46.06734141684273], [11.121059352037857, 46.06736848851928], [11.120964128799514, 46.067667266749666], [11.120883307553562, 46.067709268933214], [11.120854687999223, 46.067763802173786], [11.120805007435342, 46.067859227830766], [11.12057255757085, 46.06812005241716], [11.120556922970671, 46.06813384314743], [11.120539673202304, 46.06814766386346], [11.120524038586211, 46.06816145458945], [11.12050517363983, 46.06817530528813], [11.120487923845717, 46.06818912599673], [11.120365215247219, 46.06827690697269], [11.120048255755153, 46.068525798907324], [11.120026828034932, 46.068683701857445], [11.120010827182059, 46.068814503175396], [11.119999736377444, 46.068904712012554], [11.119992974224946, 46.068981340054904], [11.11997770554522, 46.06921563118492], [11.119904009649513, 46.06940150514868], [11.119890678869323, 46.06943325361626], [11.119846529967099, 46.069546576748444], [11.119878941658586, 46.069590976652336], [11.119861971201505, 46.06965429370668], [11.119776841031928, 46.06998896480853], [11.120126629403623, 46.0700228934877], [11.120587418668116, 46.0700683407931], [11.12093156822782, 46.07010695198474], [11.121300118904918, 46.07014960908584], [11.121486731058898, 46.070168643710716], [11.121576775055722, 46.070198472169096], [11.121680258214537, 46.070241551349376], [11.121776073539309, 46.070253271848436], [11.121960145573635, 46.07029035347958], [11.122147793238389, 46.070336368672734], [11.122245569000828, 46.0703570526476], [11.122342074590993, 46.070386760437], [11.122397509685538, 46.070399230761], [11.122737381762605, 46.07053691924915], [11.122794212213915, 46.07045936049114], [11.123080859557207, 46.0704315317189], [11.12306168311992, 46.070647895275776], [11.123216041082076, 46.070753029433654], [11.123350906276425, 46.070813524297925], [11.123471752386015, 46.07088778009034], [11.1234742305508, 46.070910234753995], [11.12350226930622, 46.070882712565535], [11.123553956892248, 46.07088175156009], [11.123600391697881, 46.070912389230664], [11.12360373289772, 46.070957328582786], [11.123668169861034, 46.07095163032523], [11.12371102909819, 46.07097333413887], [11.123749215256776, 46.070999624977674], [11.123778683931558, 46.071093580116234], [11.123888002586474, 46.07107804686645], [11.12394292082654, 46.071077025608744], [11.124001242177489, 46.07108044118551], [11.124034126473928, 46.07105282875557], [11.124111941843518, 46.071100883219096], [11.124224022770335, 46.07115730063587], [11.124375560466973, 46.071230984643385], [11.12449912132778, 46.07129168840979], [11.12446369730659, 46.07133734880323], [11.124552474850388, 46.07137619876534], [11.124688389629526, 46.07133766928113], [11.12485189562363, 46.07180714297505], [11.12501115709367, 46.07199768626347], [11.125034289002686, 46.07201075632047], [11.1250813045081, 46.0720143816994], [11.125127629107336, 46.07200001932193]]]}}, {"type": "Feature", "properties": {"area": 24724.293701171875, "perimeter": 835.0304559141358, "zona": "giallo1", "fumetto": "ZRU via delle Cave", "descrizione": "ZRU via delle Cave", "pianopark": 7}, "geometry": {"type": "Polygon", "coordinates": [[[11.134027785280633, 46.065758868318426], [11.133801099812343, 46.06579010455664], [11.13362137007087, 46.065865464688564], [11.133539402452955, 46.06583549484278], [11.133462398739203, 46.06585043373483], [11.133409630087495, 46.06599092414091], [11.133367473356396, 46.06611321569306], [11.133363440043457, 46.066176293157234], [11.133452790063188, 46.06618812462055], [11.133463529862764, 46.06634092916598], [11.133361322512771, 46.06641484075475], [11.133199757894294, 46.06645835984585], [11.132782369296965, 46.06644815422173], [11.132400686241468, 46.066441780590985], [11.132173823690504, 46.06646851674414], [11.131832696573799, 46.06659188848316], [11.130908174284714, 46.06696915345576], [11.130935468174874, 46.067342156748914], [11.131127321783707, 46.06732957676439], [11.1311360337075, 46.06738791616676], [11.131416372957048, 46.067364684278544], [11.1314385213186, 46.06731026913811], [11.131808032938029, 46.06716836819412], [11.131901883143996, 46.06717111657212], [11.131905348101277, 46.067261054915036], [11.131906041094712, 46.067279042583436], [11.131945323805091, 46.06729180977564], [11.131981203030845, 46.06730014033534], [11.132369532441784, 46.067436895664805], [11.132735882403448, 46.06750655784155], [11.13323663579459, 46.06758270887408], [11.133468612244204, 46.067227364065864], [11.133504655799687, 46.06711418699507], [11.133524612043363, 46.067086813301565], [11.133611992231796, 46.0669636768983], [11.133869315254104, 46.06697237000421], [11.134089609884416, 46.06702675593318], [11.134219198388635, 46.066740824928495], [11.134087421968736, 46.066383275138904], [11.134066231475641, 46.06612716242827], [11.13407965156337, 46.06588840361388], [11.134027785280633, 46.065758868318426]]]}}, {"type": "Feature", "properties": {"area": 151312.47314453125, "perimeter": 1925.7367943363924, "zona": "rosso", "fumetto": "ZTL rossa", "descrizione": "ZTL rossa", "pianopark": 3}, "geometry": {"type": "Polygon", "coordinates": [[[11.125164953005534, 46.07200382499785], [11.125301447683018, 46.071938283116374], [11.125533527684931, 46.07192046387465], [11.125803301194276, 46.071900821448885], [11.125954422588839, 46.07173936472641], [11.126060914203501, 46.07161379996063], [11.126116869330852, 46.07153931945111], [11.126304934005748, 46.07124251449384], [11.126482908935797, 46.07097111228951], [11.126561279359159, 46.07075887286834], [11.126623141269565, 46.07066264022803], [11.126753175885531, 46.07047121272571], [11.126743490468549, 46.07034538892435], [11.126816467203515, 46.07026752749674], [11.126881540526636, 46.07019431334715], [11.127051894017749, 46.070042636001], [11.127166060188188, 46.06990100516652], [11.127218393669391, 46.06958051990769], [11.1272109548693, 46.06951315622102], [11.127201150105025, 46.06946833734372], [11.127180384778402, 46.0694327229], [11.127174156188522, 46.06939683771293], [11.127135683156384, 46.06932105171625], [11.127134937448949, 46.06921756217542], [11.12720139218083, 46.06918032329535], [11.127341631204374, 46.06900220546475], [11.127222285828978, 46.06888292430212], [11.127160509206744, 46.06878957173749], [11.127072258016781, 46.06863821025213], [11.12700961764055, 46.068522372941494], [11.126932095379791, 46.06839781243385], [11.12679303063031, 46.068143893542846], [11.126648948927768, 46.06788556774002], [11.12654697523543, 46.06767145924239], [11.126419549766306, 46.06762145960193], [11.126065220905486, 46.0670523609308], [11.12573596433819, 46.0665350456919], [11.125700321416835, 46.06650762152087], [11.125375540130477, 46.0660822104219], [11.125078596185315, 46.066051734624295], [11.124653714804719, 46.0660146377889], [11.124685175347258, 46.065739543317946], [11.124686506337596, 46.06569001689391], [11.124799562239899, 46.06568791367444], [11.124813925334918, 46.06568314631336], [11.124828115763336, 46.06567388201136], [11.124855460609332, 46.06562837176859], [11.124851367116417, 46.06560594716855], [11.124840813302589, 46.065583642757794], [11.12482252942078, 46.065570482459556], [11.124800842725774, 46.06555288531252], [11.124769260470947, 46.065544866487], [11.12471688728998, 46.06552784019875], [11.124630975242132, 46.065506543713376], [11.124642785418349, 46.06543958919778], [11.12460219901827, 46.06543057644202], [11.124448218514722, 46.06542034960577], [11.124443403572762, 46.06542002981107], [11.124411294719192, 46.06541845062769], [11.124045059011259, 46.06540043771144], [11.1239720683816, 46.06539696510139], [11.12377303579336, 46.06538749566592], [11.12372314610675, 46.065384573396486], [11.123714720464276, 46.065384079865495], [11.123705052630147, 46.06538361219397], [11.123664010470277, 46.065381626812524], [11.123580323983612, 46.06537757849989], [11.123577644227892, 46.065377638517525], [11.123469408111664, 46.06538006259428], [11.12345892628667, 46.06538029734178], [11.123458261191594, 46.06538031223699], [11.123408455234609, 46.06538142476664], [11.123373075393268, 46.06538221999389], [11.123180669163075, 46.06538652874459], [11.123178835680637, 46.065386569802094], [11.123147592375844, 46.06538478165315], [11.123108330877828, 46.065382534586384], [11.12310566391718, 46.065390903104394], [11.123098278618004, 46.06540904099482], [11.123093778427622, 46.06541812495115], [11.123064064654425, 46.06548617956303], [11.123035965893058, 46.065554204145926], [11.123015252420299, 46.06560409083737], [11.123003366843886, 46.06563131267543], [11.122945553881394, 46.06576739182735], [11.122926110322725, 46.065808254594096], [11.122817068934449, 46.06599928768087], [11.122782164239185, 46.0660584383917], [11.122667006459729, 46.066258585308034], [11.122619933271807, 46.06629546136604], [11.122598011759214, 46.066313869372124], [11.122566744568713, 46.06634145135814], [11.122504900013803, 46.06641460308673], [11.122464804452774, 46.06646484986057], [11.122434227010363, 46.06651041959354], [11.122425053768012, 46.06652409051193], [11.122411207659669, 46.06654234841551], [11.122401861934266, 46.06655152238676], [11.1223817278325, 46.066574397285635], [11.12232511969731, 46.06674195476391], [11.122318078909561, 46.06676908649841], [11.12230203726311, 46.066814386087174], [11.122245538163604, 46.06702694299429], [11.122238669767443, 46.06705857166945], [11.122222972902366, 46.06711286513849], [11.122179002948233, 46.0672306860462], [11.122163823353702, 46.06729847034394], [11.122143217918481, 46.067393356353186], [11.12211447367285, 46.06752889492676], [11.12210200685303, 46.06758312835975], [11.122105691449715, 46.06763706169549], [11.122110175287707, 46.0677539822751], [11.122246302108314, 46.06780545472034], [11.122405213758444, 46.06786100374855], [11.122422274526905, 46.0679686902984], [11.122438880712744, 46.06802238349847], [11.122466902738655, 46.06812086604566], [11.122475495989931, 46.06813420680204], [11.12248766453999, 46.06815648141477], [11.122557978832589, 46.068177675451885], [11.122613584240687, 46.06819464265649], [11.122637984136178, 46.06819868934005], [11.122673862657944, 46.06820702283613], [11.12268695644265, 46.06821127963461], [11.122712799002873, 46.06821079934051], [11.122808610983943, 46.06822251903424], [11.12290119268187, 46.06823429868947], [11.122940129058803, 46.0682380751157], [11.123005080541645, 46.06824586811048], [11.123167286778415, 46.068260853492646], [11.123311553764585, 46.06827167200052], [11.123402347912275, 46.06827898433192], [11.12348489370384, 46.0682819497977], [11.123677788220895, 46.068296363885814], [11.123885391885462, 46.068315004270396], [11.12388429453358, 46.06832852512468], [11.124010795018297, 46.06833967312942], [11.124200459517148, 46.06835414640278], [11.124204318864477, 46.06841257656646], [11.124229620017228, 46.06865061391052], [11.124239706022514, 46.06874492945525], [11.124242011736278, 46.068762887168084], [11.124242702276728, 46.06878087492128], [11.124246623168917, 46.06879880259343], [11.12424892888779, 46.06881676030585], [11.124252849784947, 46.06883468797758], [11.124256770684845, 46.06885261564906], [11.124260691587486, 46.06887054332028], [11.124266227671006, 46.06888844095049], [11.12427014857963, 46.068906368621235], [11.124277299849368, 46.06892423620971], [11.124351118579112, 46.069120869771346], [11.12439777493377, 46.069241505980514], [11.124422570741086, 46.06934004804312], [11.124432027928668, 46.069375873324695], [11.124441312474156, 46.06940720166784], [11.124454345387802, 46.069451960733765], [11.124467723639343, 46.06950571367172], [11.124470029467469, 46.06952367137587], [11.12447106541697, 46.06955065299806], [11.124470486169914, 46.069577664664145], [11.12446956160565, 46.069595682456224], [11.124468637041007, 46.06961370024824], [11.124466097276342, 46.069631748084234], [11.124463557510264, 46.069649795920185], [11.124458132657455, 46.069676897717905], [11.124407966297232, 46.070096344638166], [11.124460171101164, 46.070108874045644], [11.124523855090922, 46.07012569004997], [11.12458072206393, 46.07025963668058], [11.124614519340936, 46.07034001065101], [11.124703975537322, 46.07052285261152], [11.124711127173672, 46.070540720162036], [11.124718278814832, 46.07055858771206], [11.124725430460812, 46.070576455261474], [11.124732582111612, 46.07059432281028], [11.1247381185393, 46.07061222040691], [11.124743654970732, 46.07063011800316], [11.12474919140598, 46.07064801559905], [11.12475472784497, 46.07066591319454], [11.124760264287774, 46.07068381078964], [11.124764185503842, 46.07070173843317], [11.124767934033112, 46.0707151691412], [11.124770240022842, 46.070733126833254], [11.124774161246195, 46.070751054476155], [11.124776467239826, 46.07076901216787], [11.124778773235173, 46.07078696985944], [11.124780662493631, 46.07096244047454], [11.124805693544582, 46.071024976872714], [11.12481284528423, 46.07104284441375], [11.124830724654412, 46.071087513263805], [11.124927091096719, 46.07145023237012], [11.124944848951097, 46.071575906112116], [11.124974665410903, 46.07167885476062], [11.125031707915097, 46.07181729801991], [11.125099884859308, 46.071951033930674], [11.125127629107336, 46.07200001932193], [11.125164953005534, 46.07200382499785]]]}}]}