{
"type": "FeatureCollection",
"name": "bike_sharing",
"crs": { "type": "name", "properties": { "name": "urn:ogc:def:crs:EPSG::25832" } },
"features": [
{ "type": "Feature", "properties": { "id": 20, "fumetto": "ZUFFO 2 - VIA DOS TRENTO", "desc": "ZUFFO 2 - VIA DOS TRENTO", "cicloposteggi": 12, "tipologia": "linea" }, "geometry": { "type": "Point", "coordinates": [ 663132.531704803230241, 5104569.75162676628679 ] } },
{ "type": "Feature", "properties": { "id": 30, "fumetto": "PIEDICASTELLO in piazza di Piedicastello nel giardino Andrea Hofler", "desc": "PIEDICASTELLO in piazza di Piedicastello nel giardino Andrea Hofler", "cicloposteggi": 12, "tipologia": "linea" }, "geometry": { "type": "Point", "coordinates": [ 663455.435572972986847, 5104131.478645863942802 ] } },
{ "type": "Feature", "properties": { "id": 6, "fumetto": "STAZIONE AUTOCORRIERE via Pozzo/via Torre Vanga", "desc": "STAZIONE AUTOCORRIERE via Pozzo/via Torre Vanga", "cicloposteggi": 22, "tipologia": "linea" }, "geometry": { "type": "Point", "coordinates": [ 663964.006411279202439, 5104033.362631847150624 ] } },
{ "type": "Feature", "properties": { "id": 2, "fumetto": "TOP CENTER", "desc": "TOP CENTER", "cicloposteggi": 24, "tipologia": "linea" }, "geometry": { "type": "Point", "coordinates": [ 663773.252379020908847, 5106250.200748023577034 ] } },
{ "type": "Feature", "properties": { "id": 1, "fumetto": "BREN CENTER via Guardini", "desc": "BREN CENTER via Guardini", "cicloposteggi": 18, "tipologia": "linea" }, "geometry": { "type": "Point", "coordinates": [ 663696.437762682791799, 5106760.875697383657098 ] } },
{ "type": "Feature", "properties": { "id": 3, "fumetto": "PIAZZA DI CENTA", "desc": "PIAZZA DI CENTA", "cicloposteggi": 12, "tipologia": "vis a vis" }, "geometry": { "type": "Point", "coordinates": [ 664232.006337707280181, 5104613.622672153636813 ] } },
{ "type": "Feature", "properties": { "id": 12, "fumetto": "AZIENDA SANITARIA via Degasperi", "desc": "AZIENDA SANITARIA via Degasperi", "cicloposteggi": 18, "tipologia": "linea" }, "geometry": { "type": "Point", "coordinates": [ 664658.019265496172011, 5101181.576637987047434 ] } },
{ "type": "Feature", "properties": { "id": 41, "fumetto": "MATTARELLO - piazza Q. PERINI", "desc": "MATTARELLO - piazza Q. PERINI", "cicloposteggi": 6, "tipologia": "vis a vis" }, "geometry": { "type": "Point", "coordinates": [ 664782.806458356673829, 5097026.294375053606927 ] } },
{ "type": "Feature", "properties": { "id": 10, "fumetto": "PISCINA via Fogazzaro/via Gocciadoro", "desc": "PISCINA via Fogazzaro/via Gocciadoro", "cicloposteggi": 12, "tipologia": "linea" }, "geometry": { "type": "Point", "coordinates": [ 664833.682563948677853, 5102510.033240160904825 ] } },
{ "type": "Feature", "properties": { "id": 9, "fumetto": "CENTRO S. CHIARA via S. Croce", "desc": "CENTRO S. CHIARA via S. Croce", "cicloposteggi": 18, "tipologia": "vis a vis" }, "geometry": { "type": "Point", "coordinates": [ 664267.456462530535646, 5103285.781618121080101 ] } },
{ "type": "Feature", "properties": { "id": 8, "fumetto": "UNIVERSITA' via Rosmini", "desc": "UNIVERSITA' via Rosmini", "cicloposteggi": 18, "tipologia": "linea" }, "geometry": { "type": "Point", "coordinates": [ 663881.855060689267702, 5103601.378003556281328 ] } },
{ "type": "Feature", "properties": { "id": 7, "fumetto": "BIBLIOTECA via Torre Vanga/via Alfieri", "desc": "BIBLIOTECA via Torre Vanga/via Alfieri", "cicloposteggi": 24, "tipologia": "vis a vis" }, "geometry": { "type": "Point", "coordinates": [ 664045.825128166703507, 5104061.664204567670822 ] } },
{ "type": "Feature", "properties": { "id": 4, "fumetto": "PIAZZA VENEZIA", "desc": "PIAZZA VENEZIA", "cicloposteggi": 24, "tipologia": "linea" }, "geometry": { "type": "Point", "coordinates": [ 664495.878769757924601, 5103757.637572498060763 ] } },
{ "type": "Feature", "properties": { "id": 15, "fumetto": "MUSE corso del Lavoro e della Scienza", "desc": "MUSE corso del Lavoro e della Scienza", "cicloposteggi": 12, "tipologia": "linea" }, "geometry": { "type": "Point", "coordinates": [ 663647.330850107362494, 5103059.266779768280685 ] } },
{ "type": "Feature", "properties": { "id": 17, "fumetto": "CENTRO SPORTIVO GARDOLO via IV Novembre", "desc": "CENTRO SPORTIVO GARDOLO via IV Novembre", "cicloposteggi": 12, "tipologia": "vis a vis" }, "geometry": { "type": "Point", "coordinates": [ 663297.601120377657935, 5107828.455968961119652 ] } },
{ "type": "Feature", "properties": { "id": 16, "fumetto": "VIA BEZZI angolo via Vittorio Veneto", "desc": "VIA BEZZI angolo via Vittorio Veneto", "cicloposteggi": 9, "tipologia": "linea" }, "geometry": { "type": "Point", "coordinates": [ 663929.493012269726023, 5102688.996509498916566 ] } },
{ "type": "Feature", "properties": { "id": 11, "fumetto": "STAZIONE FF.SS. - OSPEDALE via Gocciadoro/Staz. S. Chiara", "desc": "STAZIONE FF.SS. - OSPEDALE via Gocciadoro/Staz. S. Chiara", "cicloposteggi": 12, "tipologia": "vis a vis" }, "geometry": { "type": "Point", "coordinates": [ 665197.197262048139237, 5102314.161295703612268 ] } },
{ "type": "Feature", "properties": { "id": 19, "fumetto": "VIA MADRUZZO", "desc": "VIA MADRUZZO", "cicloposteggi": 10, "tipologia": "vis a vis" }, "geometry": { "type": "Point", "coordinates": [ 663910.932124481303617, 5103301.462420123629272 ] } },
{ "type": "Feature", "properties": { "id": 13, "fumetto": "LIDORNO - via Lidorno/park Trento sud", "desc": "LIDORNO - via Lidorno/park Trento sud", "cicloposteggi": 8, "tipologia": "vis a vis" }, "geometry": { "type": "Point", "coordinates": [ 664547.330850107595325, 5099937.104617606848478 ] } },
{ "type": "Feature", "properties": { "id": 18, "fumetto": "VIA VANNETTI (sede PAT)", "desc": "VIA VANNETTI (sede PAT)", "cicloposteggi": 8, "tipologia": "linea" }, "geometry": { "type": "Point", "coordinates": [ 664074.536193767213263, 5104326.797750855796039 ] } },
{ "type": "Feature", "properties": { "id": 21, "fumetto": "EX ATESINA - LIDL via Del Brennero", "desc": "EX ATESINA - LIDL via Del Brennero", "cicloposteggi": 12, "tipologia": "linea" }, "geometry": { "type": "Point", "coordinates": [ 663868.730309141683392, 5105547.825056447647512 ] } },
{ "type": "Feature", "properties": { "id": 22, "fumetto": "CAMPO CONI corso degli Alpini", "desc": "CAMPO CONI corso degli Alpini", "cicloposteggi": 12, "tipologia": "linea" }, "geometry": { "type": "Point", "coordinates": [ 663737.588959653861821, 5105092.087902737781405 ] } },
{ "type": "Feature", "properties": { "id": 23, "fumetto": "STUDENTATO MAYER corso Buonarroti", "desc": "STUDENTATO MAYER corso Buonarroti", "cicloposteggi": 12, "tipologia": "linea" }, "geometry": { "type": "Point", "coordinates": [ 663784.743771073641255, 5104363.040514408610761 ] } },
{ "type": "Feature", "properties": { "id": 24, "fumetto": "VERONA viale Verona/via Olmi", "desc": "VERONA viale Verona/via Olmi", "cicloposteggi": 12, "tipologia": "linea" }, "geometry": { "type": "Point", "coordinates": [ 664887.471189752337523, 5101741.693845574744046 ] } },
{ "type": "Feature", "properties": { "id": 25, "fumetto": "CLARINA incrocio via Degasperi - via Anna Frank", "desc": "CLARINA incrocio via Degasperi - via Anna Frank", "cicloposteggi": 12, "tipologia": "linea" }, "geometry": { "type": "Point", "coordinates": [ 664315.648333230754361, 5101884.103854175657034 ] } },
{ "type": "Feature", "properties": { "id": 26, "fumetto": "BARBACOVI nei pressi dell'incrocio via Barbacovi-via Brigata Acqui", "desc": "BARBACOVI nei pressi dell'incrocio via Barbacovi-via Brigata Acqui", "cicloposteggi": 12, "tipologia": "linea" }, "geometry": { "type": "Point", "coordinates": [ 664560.242684128577821, 5103481.49432572722435 ] } },
{ "type": "Feature", "properties": { "id": 27, "fumetto": "GARDOLO-EX SEGHERIA via Feininger/piazzale Groff", "desc": "GARDOLO-EX SEGHERIA via Feininger/piazzale Groff", "cicloposteggi": 6, "tipologia": "linea" }, "geometry": { "type": "Point", "coordinates": [ 663212.362239587353542, 5108172.693229178898036 ] } },
{ "type": "Feature", "properties": { "id": 28, "fumetto": "MACCANI via Maccani/Comando di Polizia Locale", "desc": "MACCANI via Maccani/Comando di Polizia Locale", "cicloposteggi": 12, "tipologia": "vis a vis" }, "geometry": { "type": "Point", "coordinates": [ 663031.447259726235643, 5106278.223706593737006 ] } },
{ "type": "Feature", "properties": { "id": 29, "fumetto": "CANOVA nel parcheggio del centro sportivo in via Paludi", "desc": "CANOVA nel parcheggio del centro sportivo in via Paludi", "cicloposteggi": 12, "tipologia": "vis a vis" }, "geometry": { "type": "Point", "coordinates": [ 663041.349807918420993, 5107225.545286824926734 ] } },
{ "type": "Feature", "properties": { "id": 38, "fumetto": "PIEDICASTELLO EX ITALCEMENTI via Lungadige S. Nicolò", "desc": "PIEDICASTELLO EX ITALCEMENTI via Lungadige S. Nicolò", "cicloposteggi": 12, "tipologia": "linea" }, "geometry": { "type": "Point", "coordinates": [ 663460.857858402072452, 5103937.994766452349722 ] } },
{ "type": "Feature", "properties": { "id": 35, "fumetto": "PALATRENTO via Fersina/via Bartali", "desc": "PALATRENTO via Fersina/via Bartali", "cicloposteggi": 12, "tipologia": "linea" }, "geometry": { "type": "Point", "coordinates": [ 664333.959032257436775, 5100736.117390552535653 ] } },
{ "type": "Feature", "properties": { "id": 36, "fumetto": "RONCAFORT via Caneppele", "desc": "RONCAFORT via Caneppele", "cicloposteggi": 12, "tipologia": "linea" }, "geometry": { "type": "Point", "coordinates": [ 662453.40891877876129, 5107318.104026497341692 ] } },
{ "type": "Feature", "properties": { "id": 32, "fumetto": "MADONNA BIANCA via Menguzzato / viale Verona", "desc": "VIA MENGUZZATO presso l'intersezione con viale Verona", "cicloposteggi": 12, "tipologia": "linea" }, "geometry": { "type": "Point", "coordinates": [ 664915.489544067066163, 5100974.25296342279762 ] } },
{ "type": "Feature", "properties": { "id": 34, "fumetto": "OSPEDALE S. CHIARA Largo Medaglie d'Oro", "desc": "OSPEDALE S. CHIARA Largo Medaglie d'Oro", "cicloposteggi": 9, "tipologia": "linea" }, "geometry": { "type": "Point", "coordinates": [ 664966.832181312027387, 5102656.256479735486209 ] } },
{ "type": "Feature", "properties": { "id": 31, "fumetto": "STAZIONE FF.SS. VILLAZZANO - via Asiago", "desc": "STAZIONE FF.SS. VILLAZZANO - via Asiago", "cicloposteggi": 12, "tipologia": "linea" }, "geometry": { "type": "Point", "coordinates": [ 665529.039128885720856, 5101190.063032433390617 ] } },
{ "type": "Feature", "properties": { "id": 33, "fumetto": "GORIZIA via Gorizi/via Vicenza", "desc": "GORIZIA via Gorizi/via Vicenza", "cicloposteggi": 12, "tipologia": "linea" }, "geometry": { "type": "Point", "coordinates": [ 665002.21875, 5103155.171875 ] } },
{ "type": "Feature", "properties": { "id": 37, "fumetto": "CIMITERO VILLAZZANO via Valnigra", "desc": "CIMITERO VILLAZZANO via Valnigra", "cicloposteggi": 12, "tipologia": "linea" }, "geometry": { "type": "Point", "coordinates": [ 665928.057020474574529, 5101964.452244457788765 ] } },
{ "type": "Feature", "properties": { "id": 39, "fumetto": "PONTE DEI CAVALLEGGERI viale Rovereto / viale Verona", "desc": "PONTE DEI CAVALLEGGERI viale Rovereto / viale Verona", "cicloposteggi": 6, "tipologia": "linea" }, "geometry": { "type": "Point", "coordinates": [ 664534.819523082231171, 5102805.722928879782557 ] } },
{ "type": "Feature", "properties": { "id": 40, "fumetto": "STUDENTATO SAN BARTOLAMEO via della Malpensada", "desc": "STUDENTATO SAN BARTOLAMEO via della Malpensada", "cicloposteggi": 12, "tipologia": "linea" }, "geometry": { "type": "Point", "coordinates": [ 665073.083575402386487, 5101615.995783309452236 ] } }
]
}
