{
"type": "FeatureCollection",
"name": "patti",
"crs": { "type": "name", "properties": { "name": "urn:ogc:def:crs:EPSG::25832" } },
"features": [
{ "type": "Feature", "properties": { "id": 14, "descr": "Murale Gardolo-Canova. Abbellimento del sottopasso di via Soprasasso", "fumetto": "Murale Gardolo-Canova. Abbellimento del sottopasso di via Soprasasso", "link": "http://www.comune.trento.it/Aree-tematiche/Beni-comuni/Patti-di-collaborazione-e-adesioni/Patto-di-collaborazione-Murale-Gardolo-Canova" }, "geometry": { "type": "Point", "coordinates": [ 663012.056936532608233, 5108011.820301855914295 ] } },
{ "type": "Feature", "properties": { "id": 12, "descr": "Una poesia di strada", "fumetto": "Una poesia di strada", "link": "http://www.comune.trento.it/Aree-tematiche/Beni-comuni/Patti-di-collaborazione-e-adesioni/Patto-di-collaborazione-per-la-proposta-Una-poesia-di-strada" }, "geometry": { "type": "Point", "coordinates": [ 664117.361069756094366, 5102719.74619959294796 ] } },
{ "type": "Feature", "properties": { "id": 5, "descr": "Beni comuni: volontariato, cittadinanza  e amministrazioni pubbliche", "fumetto": "Beni comuni: volontariato, cittadinanza  e amministrazioni pubbliche", "link": "http://www.comune.trento.it/Aree-tematiche/Beni-comuni/Patti-di-collaborazione-e-adesioni/Patto-di-collaborazione-per-un-percorso-di-formazione-sui-beni-comuni" }, "geometry": { "type": "Point", "coordinates": [ 664034.004390923888423, 5103921.516787394881248 ] } },
{ "type": "Feature", "properties": { "id": 15, "descr": "Cippo a ricordo del gemellaggio Mattarello-Ergolding", "fumetto": "Cippo a ricordo del gemellaggio Mattarello-Ergolding", "link": "http://www.comune.trento.it/Aree-tematiche/Beni-comuni/Patti-di-collaborazione-e-adesioni/Patto-di-collaborazione-per-la-sistemazione-del-Cippo-a-ricordo-del-gemellaggio-Mattarello-Ergolding" }, "geometry": { "type": "Point", "coordinates": [ 664899.789488968322985, 5097084.899667481891811 ] } },
{ "type": "Feature", "properties": { "id": 1, "descr": "Piccole piante crescono", "fumetto": "Piccole piante crescono", "link": "http://www.comune.trento.it/Aree-tematiche/Beni-comuni/Patti-di-collaborazione-e-adesioni/Patto-di-collaborazione-per-la-proposta-Piccole-piante-crescono" }, "geometry": { "type": "Point", "coordinates": [ 664485.497618760564364, 5102764.452141496352851 ] } },
{ "type": "Feature", "properties": { "id": 2, "descr": "Immagin-abili", "fumetto": "Immagin-abili", "link": "http://www.comune.trento.it/Aree-tematiche/Beni-comuni/Patti-di-collaborazione-e-adesioni/Patto-di-collaborazione-per-la-proposta-IMMAGIN-ABILI" }, "geometry": { "type": "Point", "coordinates": [ 664281.708521548775025, 5102431.750303152017295 ] } },
{ "type": "Feature", "properties": { "id": 3, "descr": "A-zonzo:conoscere una citta senza muovere un passo", "fumetto": "A-zonzo:conoscere una citta senza muovere un passo", "link": "http://www.comune.trento.it/Aree-tematiche/Beni-comuni/Patti-di-collaborazione-e-adesioni/Patto-di-collaborazione-per-la-proposta-AZONZO-Conoscere-una-citta-senza-muovere-un-passo" }, "geometry": { "type": "Point", "coordinates": [ 663412.852144202101044, 5102751.040989845059812 ] } },
{ "type": "Feature", "properties": { "id": 4, "descr": "Un bene comune a Sardagna", "fumetto": "Un bene comune a Sardagna", "link": "http://www.comune.trento.it/Aree-tematiche/Beni-comuni/Patti-di-collaborazione-e-adesioni/Patto-di-collaborazione-per-la-proposta-Adotta-un-aiuola.-Un-bene-Comune-a-Sardagna" }, "geometry": { "type": "Point", "coordinates": [ 662245.087221564725041, 5103260.083738152869046 ] } },
{ "type": "Feature", "properties": { "id": 6, "descr": "Le tue idee colorano Madonna Bianca", "fumetto": "Le tue idee colorano Madonna Bianca", "link": "http://www.comune.trento.it/Aree-tematiche/Beni-comuni/Patti-di-collaborazione-e-adesioni/Patto-di-collaborazione-per-la-proposta-Le-tue-idee-colorano-Madonna-Bianca" }, "geometry": { "type": "Point", "coordinates": [ 665125.275201266515069, 5100675.150461667217314 ] } },
{ "type": "Feature", "properties": { "id": 7, "descr": "Fare storie...in biblioteca", "fumetto": "Fare storie...in biblioteca", "link": "http://www.comune.trento.it/Aree-tematiche/Beni-comuni/Patti-di-collaborazione-e-adesioni/Patto-di-collaborazione-per-la-proposta-Fare-storie-in-biblioteca" }, "geometry": { "type": "Point", "coordinates": [ 665062.833684633020312, 5100732.459949668496847 ] } },
{ "type": "Feature", "properties": { "id": 8, "descr": "Riqualificazione parco San Pio X", "fumetto": "Riqualificazione parco San Pio X", "link": "http://www.comune.trento.it/Aree-tematiche/Beni-comuni/Patti-di-collaborazione-e-adesioni/Patto-di-collaborazione-per-la-proposta-Riqualificazione-del-parco-di-San-Pio-X" }, "geometry": { "type": "Point", "coordinates": [ 663980.066735681029968, 5102330.324047987349331 ] } },
{ "type": "Feature", "properties": { "id": 9, "descr": "Un tocco di colore per cambiare il volto ad un muro", "fumetto": "Un tocco di colore per cambiare il volto ad un muro", "link": "http://www.comune.trento.it/Aree-tematiche/Beni-comuni/Patti-di-collaborazione-e-adesioni/Patto-di-collaborazione-per-la-proposta-Un-tocco-di-colore-per-cambiare-il-volto-ad-un-muro" }, "geometry": { "type": "Point", "coordinates": [ 664694.914686313713901, 5102405.220974535681307 ] } },
{ "type": "Feature", "properties": { "id": 11, "descr": "Riqualificazione parco A. Langer", "fumetto": "Riqualificazione parco A. Langer", "link": "http://www.comune.trento.it/Aree-tematiche/Beni-comuni/Patti-di-collaborazione-e-adesioni/Patto-di-collaborazione-per-la-valorizzazione-del-Parco-A.-Langer-Parco-del-Sale" }, "geometry": { "type": "Point", "coordinates": [ 664357.624175696400926, 5102351.319175694137812 ] } },
{ "type": "Feature", "properties": { "id": 13, "descr": "Riqualificazione Dos Trento", "fumetto": "Riqualificazione Dos Trento", "link": "http://www.comune.trento.it/Aree-tematiche/Beni-comuni/Patti-di-collaborazione-e-adesioni/Patto-di-collaborazione-I-NUVOLA-hanno-a-cuore-il-Dos-Trento" }, "geometry": { "type": "Point", "coordinates": [ 663387.75932449742686, 5104363.277704916894436 ] } },
{ "type": "Feature", "properties": { "id": 18, "descr": "Casa del cane", "fumetto": "Casa del cane", "link": "http://www.comune.trento.it/Aree-tematiche/Beni-comuni/Patti-di-collaborazione-e-adesioni/Patto-di-collaborazione-Casa-del-cane" }, "geometry": { "type": "Point", "coordinates": [ 664079.035419962601736, 5102082.100514370948076 ] } },
{ "type": "Feature", "properties": { "id": 19, "descr": "Aspettando lo scuolabus", "fumetto": "Aspettando lo scuolabus", "link": "http://www.comune.trento.it/Aree-tematiche/Beni-comuni/Patti-di-collaborazione-e-adesioni/Patto-di-collaborazione-Aspettando-lo-scuolabus" }, "geometry": { "type": "Point", "coordinates": [ 659342.080121118342504, 5104794.577002485282719 ] } },
{ "type": "Feature", "properties": { "id": 20, "descr": "Shelly: una applicazione al servizio dei cittadini per i beni comuni", "fumetto": "Shelly: una applicazione al servizio dei cittadini per i beni comuni", "link": "http://www.comune.trento.it/Aree-tematiche/Beni-comuni/Patti-di-collaborazione-e-adesioni/Patto-di-collaborazione-Shelly-una-applicazione-al-servizio-dei-cittadini-per-i-beni-comuni" }, "geometry": { "type": "Point", "coordinates": [ 664050.428726708167233, 5103906.009006211534142 ] } },
{ "type": "Feature", "properties": { "id": 10, "descr": "Coderdojo Trento", "fumetto": "Coderdojo Trento", "link": "http://www.comune.trento.it/Aree-tematiche/Beni-comuni/Patti-di-collaborazione-e-adesioni/Patto-di-collaborazione-per-la-proposta-Coderdojo-Trento" }, "geometry": { "type": "Point", "coordinates": [ 664037.947388081927784, 5104115.230339221656322 ] } },
{ "type": "Feature", "properties": { "id": 22, "descr": "Umore urbano", "fumetto": "Umore urbano", "link": "\nhttp://www.comune.trento.it/Aree-tematiche/Beni-comuni/Patti-di-collaborazione-e-adesioni/Patto-di-collaborazione-Umore-Urbano " }, "geometry": { "type": "Point", "coordinates": [ 664302.993133886484429, 5104285.396489928476512 ] } },
{ "type": "Feature", "properties": { "id": 23, "descr": "Ogni socio un albero", "fumetto": "Ogni socio un albero", "link": "http://www.comune.trento.it/Aree-tematiche/Beni-comuni/Patti-di-collaborazione-e-adesioni/Patto-di-collaborazione-Ogni-socio-un-albero" }, "geometry": { "type": "Point", "coordinates": [ 665684.919583731330931, 5102763.997916864231229 ] } },
{ "type": "Feature", "properties": { "id": 26, "descr": "Creato(ri) di bellezza", "fumetto": "Creato(ri) di bellezza", "link": "http://www.comune.trento.it/Aree-tematiche/Beni-comuni/Patti-di-collaborazione-e-adesioni/Patto-di-collaborazione-Creato-ri-di-bellezza" }, "geometry": { "type": "Point", "coordinates": [ 663689.356249876436777, 5103034.684895861893892 ] } },
{ "type": "Feature", "properties": { "id": 24, "descr": "Valorizzazione del patrimonio documentale della Biblioteca comunale", "fumetto": "Valorizzazione del patrimonio documentale della Biblioteca comunale", "link": "http://www.comune.trento.it/Aree-tematiche/Beni-comuni/Patti-di-collaborazione-e-adesioni/Valorizzazione-del-patrimonio-documentale-della-Biblioteca-comunale" }, "geometry": { "type": "Point", "coordinates": [ 664015.211522511555813, 5103982.713418244384229 ] } },
{ "type": "Feature", "properties": { "id": 25, "descr": "Restauro e cura del monumento ai caduti di Villazzano", "fumetto": "Restauro e cura del monumento ai caduti di Villazzano", "link": "http://www.comune.trento.it/Aree-tematiche/Beni-comuni/Patti-di-collaborazione-e-adesioni/Patto-di-collaborazione-per-il-restauro-e-cura-del-monumento-ai-caduti-di-Villazzano" }, "geometry": { "type": "Point", "coordinates": [ 665863.661197893554345, 5101755.542604193091393 ] } },
{ "type": "Feature", "properties": { "id": 28, "descr": "Passeggiata lungo un fiume di opere", "fumetto": "Passeggiata lungo un fiume di opere", "link": "http://www.comune.trento.it/Aree-tematiche/Beni-comuni/Patti-di-collaborazione-e-adesioni/Patto-di-collaborazione-Passeggiata-lungo-un-fiume-di-opere" }, "geometry": { "type": "Point", "coordinates": [ 663380.979154324741103, 5102909.348341233097017 ] } },
{ "type": "Feature", "properties": { "id": 30, "descr": "La scuola fuori dalla scuola", "fumetto": "La scuola fuori dalla scuola", "link": "http://www.comune.trento.it/Aree-tematiche/Beni-comuni/Patti-di-collaborazione-e-adesioni/Patto-di-collaborazione-La-scuola-fuori-dalla-scuola" }, "geometry": { "type": "Point", "coordinates": [ 663931.079531247378327, 5102410.748437487520278 ] } },
{ "type": "Feature", "properties": { "id": 40, "descr": "Ravina: alla mia scuola ci penso io ", "fumetto": "Ravina: alla mia scuola ci penso io ", "link": "http://www.comune.trento.it/Aree-tematiche/Beni-comuni/Patti-di-collaborazione-e-adesioni/Ravina-alla-mia-scuola-ci-penso-anch-io" }, "geometry": { "type": "Point", "coordinates": [ 663131.729589869850315, 5100443.906699733808637 ] } },
{ "type": "Feature", "properties": { "id": 31, "descr": "Quest' aiuola non fa piu' pieta'", "fumetto": "Quest' aiuola non fa piu' pieta'", "link": "http://www.comune.trento.it/Aree-tematiche/Beni-comuni/Patti-di-collaborazione-e-adesioni/Patto-di-collaborazione-Quest-aiuola-non-fa-piu-pieta" }, "geometry": { "type": "Point", "coordinates": [ 663843.640478221001104, 5104509.951826026663184 ] } },
{ "type": "Feature", "properties": { "id": 32, "descr": "Ronca Camp! 2.0", "fumetto": "Ronca Camp! 2.0", "link": "http://www.comune.trento.it/Aree-tematiche/Beni-comuni/Proposte-di-collaborazione/Proposte-dei-cittadini/Ronca-Camp%21-2.0" }, "geometry": { "type": "Point", "coordinates": [ 662500.477446457720362, 5107291.252609120681882 ] } },
{ "type": "Feature", "properties": { "id": 33, "descr": "Un murales per le Albere", "fumetto": "Un murales per le Albere", "link": "http://www.comune.trento.it/Aree-tematiche/Beni-comuni/Patti-di-collaborazione-e-adesioni/Patto-di-collaborazione-Un-murales-per-le-Albere" }, "geometry": { "type": "Point", "coordinates": [ 663674.941996445995755, 5103033.994271323084831 ] } },
{ "type": "Feature", "properties": { "id": 34, "descr": "San Marco: Bene Comune", "fumetto": "San Marco: Bene Comune", "link": "http://www.comune.trento.it/Aree-tematiche/Beni-comuni/Proposte-di-collaborazione/Proposte-dei-cittadini/San-Marco-Bene-Comune" }, "geometry": { "type": "Point", "coordinates": [ 664441.158333350671455, 5104049.084791717119515 ] } },
{ "type": "Feature", "properties": { "id": 27, "descr": "Orto come bene comune: tra territorio e comunità", "fumetto": "Orto come bene comune: tra territorio e comunità", "link": "http://www.comune.trento.it/Aree-tematiche/Beni-comuni/Patti-di-collaborazione-e-adesioni/Patto-di-collaborazione-Orto-come-bene-comune-tra-territorio-e-comunita" }, "geometry": { "type": "Point", "coordinates": [ 663463.26979131239932, 5103173.789583503268659 ] } },
{ "type": "Feature", "properties": { "id": 35, "descr": "Fiori dalla fabbrica: Trento, Michelin 1927 - 1999", "fumetto": "Fiori dalla fabbrica: Trento, Michelin 1927 - 1999", "link": "http://www.comune.trento.it/Aree-tematiche/Beni-comuni/Proposte-di-collaborazione/Proposte-dei-cittadini/Fiori-dalla-fabbrica-Trento-Michelin-1927-1999" }, "geometry": { "type": "Point", "coordinates": [ 663444.687889623572119, 5103159.026457478292286 ] } },
{ "type": "Feature", "properties": { "id": 36, "descr": "Curiamo il monumento", "fumetto": "Curiamo il monumento", "link": "http://www.comune.trento.it/Aree-tematiche/Beni-comuni/Patti-di-collaborazione-e-adesioni/Curiamo-il-Monumento" }, "geometry": { "type": "Point", "coordinates": [ 663176.543590212590061, 5108243.165890153497458 ] } },
{ "type": "Feature", "properties": { "id": 37, "descr": "Progetto STRA.BENE azioni di cura proposte da parte dell'Istituto Comprensivo Aldeno Mattarelllo", "fumetto": "Progetto STRA.BENE azioni di cura proposte da parte dell'Istituto Comprensivo Aldeno Mattarelllo", "link": "http://www.comune.trento.it/Aree-tematiche/Beni-comuni/Proposte-di-collaborazione/Proposte-dei-cittadini/Progetto-STRA.BENE-azioni-di-cura-proposte-da-parte-dell-Istituto-Comprensivo-Aldeno-Mattarello" }, "geometry": { "type": "Point", "coordinates": [ 664964.732617015950382, 5097005.386606140062213 ] } },
{ "type": "Feature", "properties": { "id": 38, "descr": "Progetto STRA.BENE azioni di cura proposte dall'Istituto Comprensivo Trento 6", "fumetto": "Progetto STRA.BENE azioni di cura proposte da parte dell'Istituto Comprensivo Trento 6", "link": "http://www.comune.trento.it/Aree-tematiche/Beni-comuni/Patti-di-collaborazione-e-adesioni/Progetto-STRA.BENE-azioni-di-cura-proposte-da-parte-dell-Istituto-Comprensivo-Trento-6" }, "geometry": { "type": "Point", "coordinates": [ 663762.692609041696414, 5104303.468680612742901 ] } },
{ "type": "Feature", "properties": { "id": 39, "descr": "Progetto STRA.BENE azioni di cura proposte da parte dell'Istituto Arcivescovile", "fumetto": "Progetto STRA.BENE azioni di cura proposte da parte dell'Istituto Arcivescovile", "link": "http://www.comune.trento.it/Aree-tematiche/Beni-comuni/Patti-di-collaborazione-e-adesioni/Progetto-STRA.BENE-azioni-di-cura-proposte-da-parte-dell-Istituto-Arcivescovile" }, "geometry": { "type": "Point", "coordinates": [ 664092.593446040176786, 5103055.368186663836241 ] } },
{ "type": "Feature", "properties": { "id": 41, "descr": "Rigenerazione urbana con un murale sul tema comunita' e cooperazione", "fumetto": "Rigenerazione urbana con un murale sul tema comunita' e cooperazione", "link": "http://www.comune.trento.it/Aree-tematiche/Beni-comuni/Proposte-di-collaborazione/Proposte-dei-cittadini/Rigenerazione-urbana-con-un-murale-sul-tema-comunita-e-cooperazione" }, "geometry": { "type": "Point", "coordinates": [ 663900.765374737442471, 5103089.517418853007257 ] } },
{ "type": "Feature", "properties": { "id": 42, "descr": "Coloriamo Gardolo", "fumetto": "Coloriamo Gardolo", "link": "http://www.comune.trento.it/Aree-tematiche/Beni-comuni/Patti-di-collaborazione-e-adesioni/Coloriamo-Gardolo" }, "geometry": { "type": "Point", "coordinates": [ 662844.674439200432971, 5108961.994182371534407 ] } },
{ "type": "Feature", "properties": { "id": 43, "descr": "Giochiamoci il cortile", "fumetto": "Giochiamoci il cortile", "link": "http://www.comune.trento.it/Aree-tematiche/Beni-comuni/Patti-di-collaborazione-e-adesioni/Giochiamoci-il-cortile" }, "geometry": { "type": "Point", "coordinates": [ 664087.771629696711898, 5102167.791423309594393 ] } },
{ "type": "Feature", "properties": { "id": 44, "descr": "Workshop Chiasma 2019", "fumetto": "Workshop Chiasma 2019", "link": "http://www.comune.trento.it/Aree-tematiche/Beni-comuni/Patti-di-collaborazione-e-adesioni/Workshop-Chiasma-2019" }, "geometry": { "type": "Point", "coordinates": [ 664347.788737995899282, 5104307.895078029483557 ] } },
{ "type": "Feature", "properties": { "id": 48, "descr": "Degrade' - un progetto di street art per la cura dei quartieri lungo il Fersina", "fumetto": "Degrade' - un progetto di street art per la cura dei quartieri lungo il Fersina", "link": "https://www.comune.trento.it/Aree-tematiche/Beni-comuni/Patti-di-collaborazione-e-adesioni/Degrade-un-progetto-di-street-art-per-la-cura-dei-quartieri-lungo-il-Fersina" }, "geometry": { "type": "Point", "coordinates": [ 664272.554636029526591, 5102352.684863972477615 ] } },
{ "type": "Feature", "properties": { "id": 86, "descr": "Sala lettura presso S. Anna", "fumetto": "Sala lettura presso S. Anna", "link": "https://www.comune.trento.it/Aree-tematiche/Beni-comuni/Patti-di-collaborazione-e-adesioni/Patto-di-Collaborazione-Sala-lettura-presso-S.Anna" }, "geometry": { "type": "Point", "coordinates": [ 657975.2368566110963, 5103279.165106949396431 ] } },
{ "type": "Feature", "properties": { "id": 46, "descr": "Progetto STRA.BENE azioni di cura proposte dalla scuola Steiner", "fumetto": "Progetto STRA.BENE azioni di cura proposte dalla scuola Steiner", "link": "http://www.comune.trento.it/Aree-tematiche/Beni-comuni/Patti-di-collaborazione-e-adesioni/Progetto-STRA.BENE-azioni-di-cura-proposte-da-parte-della-Scuola-Steiner" }, "geometry": { "type": "Point", "coordinates": [ 665451.238661319832318, 5100797.749278371222317 ] } },
{ "type": "Feature", "properties": { "id": 49, "descr": "Il parco e' anche mio", "fumetto": "Il parco e' anche mio", "link": "https://www.comune.trento.it/Aree-tematiche/Beni-comuni/Patti-di-collaborazione-e-adesioni/Il-parco-e-anche-mio" }, "geometry": { "type": "Point", "coordinates": [ 663448.188360465574078, 5109050.942988372407854 ] } },
{ "type": "Feature", "properties": { "id": 50, "descr": "Al mio rione ci penso anch'io", "fumetto": "Al mio rione ci penso anch'io", "link": "https://www.comune.trento.it/Aree-tematiche/Beni-comuni/Patti-di-collaborazione-e-adesioni/Al-mio-rione-ci-penso-anch-io" }, "geometry": { "type": "Point", "coordinates": [ 662506.068747322075069, 5105296.340109942480922 ] } },
{ "type": "Feature", "properties": { "id": 29, "descr": "Ronca Camp!  Laboratorio di competenze civiche", "fumetto": "Ronca Camp!  Laboratorio di competenze civiche", "link": "http://www.comune.trento.it/Aree-tematiche/Beni-comuni/Patti-di-collaborazione-e-adesioni/Patto-di-collaborazione-Ronca-Camp-Laboratorio-di-competenze-civiche" }, "geometry": { "type": "Point", "coordinates": [ 662475.81817861367017, 5107291.091742596589029 ] } },
{ "type": "Feature", "properties": { "id": 51, "descr": "Matteottimisti - la festa di via Matteotti", "fumetto": "Matteottimisti - la festa di via Matteotti", "link": "https://www.comune.trento.it/Aree-tematiche/Beni-comuni/Patti-di-collaborazione-e-adesioni/Matteottimisti-la-festa-di-via-Matteotti" }, "geometry": { "type": "Point", "coordinates": [ 664170.493149752146564, 5102496.797400990501046 ] } },
{ "type": "Feature", "properties": { "id": 52, "descr": "Sport, un bene comune", "fumetto": "Sport, un bene comune", "link": "https://www.comune.trento.it/Aree-tematiche/Beni-comuni/Patti-di-collaborazione-e-adesioni/Sport-un-bene-in-comune" }, "geometry": { "type": "Point", "coordinates": [ 664065.996666645514779, 5103647.596666667610407 ] } },
{ "type": "Feature", "properties": { "id": 53, "descr": "Bilu: punto di incontro, aggregazione e promozione culturale", "fumetto": "Bilu: punto di incontro, aggregazione e promozione culturale", "link": "https://www.comune.trento.it/Aree-tematiche/Beni-comuni/Patti-di-collaborazione-e-adesioni/Bilu-punto-di-incontro-aggregazione-e-promozione-culturale" }, "geometry": { "type": "Point", "coordinates": [ 663896.130341335432604, 5106034.137883325107396 ] } },
{ "type": "Feature", "properties": { "id": 55, "descr": "Pronto P.I.A. Persone Insieme per gli Anziani", "fumetto": "Pronto P.I.A. Persone Insieme per gli Anziani", "link": "https://www.comune.trento.it/Aree-tematiche/Beni-comuni/Patti-di-collaborazione-e-adesioni/Pronto-P.I.A.-Persone-Insieme-per-gli-Anziani" }, "geometry": { "type": "Point", "coordinates": [ 664050.389171741902828, 5103909.976491833105683 ] } },
{ "type": "Feature", "properties": { "id": 21, "descr": "Patto di collaborazione per un laboratorio partecipato sugli orti urbani", "fumetto": "Patto di collaborazione per un laboratorio partecipato sugli orti urbani", "link": "http://www.comune.trento.it/Aree-tematiche/Beni-comuni/Patti-di-collaborazione-e-adesioni/Patto-di-collaborazione-per-un-laboratorio-partecipato-sugli-orti-urbani" }, "geometry": { "type": "Point", "coordinates": [ 664050.623176270513795, 5103902.431485333479941 ] } },
{ "type": "Feature", "properties": { "id": 56, "descr": "I fiori della solidarieta'", "fumetto": "I fiori della solidarieta'", "link": "https://www.comune.trento.it/Aree-tematiche/Beni-comuni/Patti-di-collaborazione-e-adesioni/Patto-di-collaborazione-I-fiori-della-solidarieta" }, "geometry": { "type": "Point", "coordinates": [ 664050.918472405755892, 5103898.872682716697454 ] } },
{ "type": "Feature", "properties": { "id": 57, "descr": "Questione di stile. Vivere lo spazio pubblico in modo creativo.", "fumetto": "Questione di stile. Vivere lo spazio pubblico in modo creativo.", "link": "https://www.comune.trento.it/Aree-tematiche/Beni-comuni/Patti-di-collaborazione-e-adesioni/Questione-di-stile.-Vivere-lo-spazio-pubblico-in-modo-creativo" }, "geometry": { "type": "Point", "coordinates": [ 664461.374943741713651, 5103293.746093732304871 ] } },
{ "type": "Feature", "properties": { "id": 47, "descr": "Orto aperto 3.0", "fumetto": "Orto aperto 3.0", "link": "\nhttps://www.comune.trento.it/Aree-tematiche/Beni-comuni/Patti-di-collaborazione-e-adesioni/Patto-di-collaborazione-Orto-Aperto-3.0" }, "geometry": { "type": "Point", "coordinates": [ 664320.036865438800305, 5102259.36455453094095 ] } },
{ "type": "Feature", "properties": { "id": 58, "descr": "Giardino d'estate ragazzi - Teatro famiglie", "fumetto": "Giardino d'estate ragazzi - Teatro famiglie", "link": "https://www.comune.trento.it/Aree-tematiche/Beni-comuni/Patti-di-collaborazione-e-adesioni/Patto-di-collaborazione-Giardino-d-estate-ragazzi-Teatro-famiglie" }, "geometry": { "type": "Point", "coordinates": [ 664458.292281546164304, 5103323.134139996953309 ] } },
{ "type": "Feature", "properties": { "id": 60, "descr": "Dal Trentino al Mondo: storie di emigrazione ", "fumetto": "Dal Trentino al Mondo: storie di emigrazione ", "link": "https://www.comune.trento.it/Aree-tematiche/Beni-comuni/Proposte-di-collaborazione/Proposte-dei-cittadini/Dal-Trentino-al-Mondo-storie-di-emigrazione" }, "geometry": { "type": "Point", "coordinates": [ 663981.301684489706531, 5105822.967669765464962 ] } },
{ "type": "Feature", "properties": { "id": 61, "descr": "\"Meano Bella\"", "fumetto": "\"Meano Bella\"", "link": "https://www.comune.trento.it/Aree-tematiche/Beni-comuni/Patti-di-collaborazione-e-adesioni/Patto-di-collaborazione-Meano-Bella" }, "geometry": { "type": "Point", "coordinates": [ 663531.181626237928867, 5109857.350440470501781 ] } },
{ "type": "Feature", "properties": { "id": 62, "descr": "In biblioteca per fare comunita'", "fumetto": "In biblioteca per fare comunita'", "link": "https://www.comune.trento.it/Aree-tematiche/Beni-comuni/Patti-di-collaborazione-e-adesioni/Patto-di-collaborazione-In-biblioteca-per-fare-comunita" }, "geometry": { "type": "Point", "coordinates": [ 665092.807408199994825, 5100974.286007521674037 ] } },
{ "type": "Feature", "properties": { "id": 64, "descr": "Sotto Sale'", "fumetto": "Sotto Sale'", "link": "https://www.comune.trento.it/Aree-tematiche/Beni-comuni/Patti-di-collaborazione-e-adesioni/Patto-di-collaborazione-Sotto-Sale" }, "geometry": { "type": "Point", "coordinates": [ 664300.472291608457454, 5102332.928749982267618 ] } },
{ "type": "Feature", "properties": { "id": 65, "descr": "Il futuro che vorrei", "fumetto": "Il futuro che vorrei", "link": "https://www.comune.trento.it/Aree-tematiche/Beni-comuni/Patti-di-collaborazione-e-adesioni/Patto-di-collaborazione-Il-futuro-che-vorrei" }, "geometry": { "type": "Point", "coordinates": [ 663698.67451599042397, 5102867.024443112313747 ] } },
{ "type": "Feature", "properties": { "id": 66, "descr": "Il giardino incantato", "fumetto": "Il giardino incantato", "link": "https://www.comune.trento.it/Aree-tematiche/Beni-comuni/Patti-di-collaborazione-e-adesioni/Patto-di-collaborazione-Il-giardino-incantato" }, "geometry": { "type": "Point", "coordinates": [ 664563.235833326354623, 5103843.61770832631737 ] } },
{ "type": "Feature", "properties": { "id": 84, "descr": "Centro socio - culturale Piccola Biblioteca di Romagnano", "fumetto": "Centro socio - culturale Piccola Biblioteca di Romagnano", "link": "https://www.comune.trento.it/Aree-tematiche/Beni-comuni/Patti-di-collaborazione-e-adesioni/Patto-di-collaborazione-Centro-socio-culturale-Piccola-Biblioteca-di-Romagnano" }, "geometry": { "type": "Point", "coordinates": [ 663011.185982784722, 5098112.860419882461429 ] } },
{ "type": "Feature", "properties": { "id": 68, "descr": "Rispetto e condivisione", "fumetto": "Rispetto e condivisione", "link": "https://www.comune.trento.it/Aree-tematiche/Beni-comuni/Patti-di-collaborazione-e-adesioni/Patto-di-collaborazione-Rispetto-e-condivisione" }, "geometry": { "type": "Point", "coordinates": [ 664908.527916612802073, 5097183.083958373405039 ] } },
{ "type": "Feature", "properties": { "id": 69, "descr": "Manifestiamo la Costituzione", "fumetto": "Manifestiamo la Costituzione", "link": "https://www.comune.trento.it/Aree-tematiche/Beni-comuni/Patti-di-collaborazione-e-adesioni/Patto-di-collaborazione-Manifestiamo-la-Costituzione" }, "geometry": { "type": "Point", "coordinates": [ 664623.027813411084935, 5103489.077551021240652 ] } },
{ "type": "Feature", "properties": { "id": 70, "descr": "Gino Rifiutino In viaggio tra i Rifi-utili", "fumetto": "Gino Rifiutino In viaggio tra i Rifi-utili", "link": "https://www.comune.trento.it/Aree-tematiche/Beni-comuni/Patti-di-collaborazione-e-adesioni/Patto-di-collaborazione-Gino-Rifiutino-In-viaggio-tra-i-Rifi-utili" }, "geometry": { "type": "Point", "coordinates": [ 665593.748437483794987, 5104790.600625009275973 ] } },
{ "type": "Feature", "properties": { "id": 71, "descr": "A chiese aperte: nella citta' del Concilio, un ponte sospeso tra cultura  e spiritualita'", "fumetto": "A chiese aperte: nella citta' del Concilio, un ponte sospeso tra cultura  e spiritualita'", "link": "https://www.comune.trento.it/Aree-tematiche/Beni-comuni/Patti-di-collaborazione-e-adesioni/Patto-di-collaborazione-A-chiese-aperte-nella-citta-del-Concilio-un-ponte-sospeso-tra-cultura-e-spiritualita" }, "geometry": { "type": "Point", "coordinates": [ 665361.55465284793172, 5102741.728819623589516 ] } },
{ "type": "Feature", "properties": { "id": 16, "descr": "Cura rinnovata al Capitello della Madonna Pellegrina di Villazzano", "fumetto": "Cura rinnovata al Capitello della Madonna Pellegrina di Villazzano", "link": "\nhttps://www.comune.trento.it/Aree-tematiche/Beni-comuni/Patti-di-collaborazione-e-adesioni/Patto-di-collaborazione-Cura-rinnovata-al-Capitello-della-Madonna-Pellegrina-di-Villazzano" }, "geometry": { "type": "Point", "coordinates": [ 666015.428854169906117, 5101700.751249971799552 ] } },
{ "type": "Feature", "properties": { "id": 17, "descr": "Park Trento: un bene comune per promuovere lo sport per tutti", "fumetto": "Park Trento: un bene comune per promuovere lo sport per tutti", "link": "https://www.comune.trento.it/Aree-tematiche/Beni-comuni/Patti-di-collaborazione-e-adesioni/Patto-di-collaborazione-Park-Trento-un-bene-comune-per-promuovere-lo-sport-per-tutti" }, "geometry": { "type": "Point", "coordinates": [ 663638.492708336212672, 5102025.568437487818301 ] } },
{ "type": "Feature", "properties": { "id": 54, "descr": "Canova un bene condiviso: il campo da calcio a servizio della comunità", "fumetto": "Canova un bene condiviso: il campo da calcio a servizio della comunità", "link": "https://www.comune.trento.it/Aree-tematiche/Beni-comuni/Patti-di-collaborazione-e-adesioni/Rinnovo-patto-di-collaborazione-Canova-un-bene-condiviso-il-campo-da-calcio-a-servizio-della-comunita" }, "geometry": { "type": "Point", "coordinates": [ 663068.196173824486323, 5107277.044551260769367 ] } },
{ "type": "Feature", "properties": { "id": 72, "descr": "Il sentiero magico", "fumetto": "Il sentiero magico", "link": "https://www.comune.trento.it/Aree-tematiche/Beni-comuni/Patti-di-collaborazione-e-adesioni/Patto-di-collaborazione-Il-sentiero-magico" }, "geometry": { "type": "Point", "coordinates": [ 664993.560384055133909, 5101701.823670784942806 ] } },
{ "type": "Feature", "properties": { "id": 73, "descr": "Inclusivita' sulla via Claudia Augusta", "fumetto": "Inclusivita' sulla via Claudia Augusta", "link": "https://www.comune.trento.it/Aree-tematiche/Beni-comuni/Patti-di-collaborazione-e-adesioni/Patto-di-collaborazione-Inclusivita-sulla-via-Claudia-Augusta" }, "geometry": { "type": "Point", "coordinates": [ 663555.095624991343357, 5109859.041458334773779 ] } },
{ "type": "Feature", "properties": { "id": 74, "descr": "Il giardino degli aromi", "fumetto": "Il giardino degli aromi", "link": "https://www.comune.trento.it/Aree-tematiche/Beni-comuni/Patti-di-collaborazione-e-adesioni/Patto-di-collaborazione-Il-Giardino-degli-aromi" }, "geometry": { "type": "Point", "coordinates": [ 664421.418749997625127, 5102736.853958329185843 ] } },
{ "type": "Feature", "properties": { "id": 45, "descr": "Diversita'  per crescere insieme - dalla bioversità al piacere della lettura ", "fumetto": "Diversita'  per crescere insieme - dalla bioversità al piacere della lettura ", "link": "https://www.comune.trento.it/Aree-tematiche/Beni-comuni/Patti-di-collaborazione-e-adesioni/Patto-di-Collaborazione-Diversita-per-crescere-insieme-dalla-biodiversita-al-piacere-per-la-lettura" }, "geometry": { "type": "Point", "coordinates": [ 663407.182187507511117, 5104109.121354174800217 ] } },
{ "type": "Feature", "properties": { "id": 75, "descr": "Installazione per Piazza Piedicastello", "fumetto": "Installazione per Piazza Piedicastello", "link": "https://www.comune.trento.it/Aree-tematiche/Beni-comuni/Patti-di-collaborazione-e-adesioni/Patto-di-collaborazione-Installazione-per-Piazza-Piedicastello" }, "geometry": { "type": "Point", "coordinates": [ 663424.18166669155471, 5104105.086458338424563 ] } },
{ "type": "Feature", "properties": { "id": 76, "descr": "Il Quartiere gioca", "fumetto": "Il Quartiere gioca", "link": "https://www.comune.trento.it/Aree-tematiche/Beni-comuni/Patti-di-collaborazione-e-adesioni/Patto-di-collaborazione-Il-Quartiere-gioca" }, "geometry": { "type": "Point", "coordinates": [ 665455.004344636225142, 5100934.081089397892356 ] } },
{ "type": "Feature", "properties": { "id": 59, "descr": "Martedi' del seme al parco", "fumetto": "Martedi' del seme al parco", "link": "https://www.comune.trento.it/Aree-tematiche/Beni-comuni/Patti-di-collaborazione-e-adesioni/Patto-di-collaborazione-Martedi-del-mese-al-parco" }, "geometry": { "type": "Point", "coordinates": [ 663961.351242076489143, 5105856.854843413457274 ] } },
{ "type": "Feature", "properties": { "id": 77, "descr": "Kanova playground - nelle mie mani", "fumetto": "Kanova playground - nelle mie mani", "link": "https://www.comune.trento.it/Aree-tematiche/Beni-comuni/Patti-di-collaborazione-e-adesioni/Patto-di-collaborazione-Kanova-playground-nelle-mie-mani" }, "geometry": { "type": "Point", "coordinates": [ 663089.462089794222265, 5107359.507444028742611 ] } },
{ "type": "Feature", "properties": { "id": 78, "descr": "Povo, la nostra casa", "fumetto": "Povo, la nostra casa", "link": "https://www.comune.trento.it/Aree-tematiche/Beni-comuni/Patti-di-collaborazione-e-adesioni/Patto-di-collaborazione-Povo-la-nostra-casa" }, "geometry": { "type": "Point", "coordinates": [ 666603.14731377211865, 5103563.352647355757654 ] } },
{ "type": "Feature", "properties": { "id": 79, "descr": "#Insieme al volo", "fumetto": "#Insieme al volo", "link": "https://www.comune.trento.it/Aree-tematiche/Beni-comuni/Patti-di-collaborazione-e-adesioni/Patto-di-collaborazione-Insiemealvolo" }, "geometry": { "type": "Point", "coordinates": [ 663530.39762203337159, 5110109.838467322289944 ] } },
{ "type": "Feature", "properties": { "id": 80, "descr": "Insieme tra i libri: leggere, esplorare, sperimentare", "fumetto": "Insieme tra i libri: leggere, esplorare, sperimentare", "link": "https://www.comune.trento.it/Aree-tematiche/Beni-comuni/Patti-di-collaborazione-e-adesioni/Patto-di-collaborazione-Insieme-tra-i-libri-leggere-esplorare-sperimentare" }, "geometry": { "type": "Point", "coordinates": [ 664779.742211261764169, 5106239.239591669291258 ] } },
{ "type": "Feature", "properties": { "id": 67, "descr": "Pigarelli Basket Court  rinnovo estate 2022", "fumetto": "Pigarelli Basket Court  rinnovo estate 2022", "link": "https://www.comune.trento.it/Aree-tematiche/Beni-comuni/Patti-di-collaborazione-e-adesioni/Patto-di-Collaborazione-Pigarelli-Basket-Court-Rinnovo-Estate-2022" }, "geometry": { "type": "Point", "coordinates": [ 663143.903121080598794, 5107826.127219925634563 ] } },
{ "type": "Feature", "properties": { "id": 81, "descr": "Bookcrossing a Centochiavi", "fumetto": "Bookcrossing a Centochiavi", "link": "https://www.comune.trento.it/Aree-tematiche/Beni-comuni/Patti-di-collaborazione-e-adesioni/Patto-di-collaborazione-Bookcrossing-a-Centochiavi" }, "geometry": { "type": "Point", "coordinates": [ 663889.008188964333385, 5106650.805931333452463 ] } },
{ "type": "Feature", "properties": { "id": 82, "descr": "La piccola biblioteca di Cadine", "fumetto": "La piccola biblioteca di Cadine", "link": "https://www.comune.trento.it/Aree-tematiche/Beni-comuni/Patti-di-collaborazione-e-adesioni/Patto-di-collaborazione-La-piccola-biblioteca-di-Cadine" }, "geometry": { "type": "Point", "coordinates": [ 659493.774509284296073, 5105640.942389929667115 ] } },
{ "type": "Feature", "properties": { "id": 83, "descr": "#Cambiamolastrada", "fumetto": "#Cambiamolastrada", "link": "https://www.comune.trento.it/Aree-tematiche/Beni-comuni/Patti-di-collaborazione-e-adesioni/Patto-di-collaborazione-Cambiamolastrada" }, "geometry": { "type": "Point", "coordinates": [ 663917.552708316943608, 5102417.693749994970858 ] } },
{ "type": "Feature", "properties": { "id": 71, "descr": "A chiese aperte: nella citta' del Concilio, un ponte sospeso tra cultura  e spiritualita'", "fumetto": "A chiese aperte: nella citta' del Concilio, un ponte sospeso tra cultura  e spiritualita'", "link": "https://www.comune.trento.it/Aree-tematiche/Beni-comuni/Patti-di-collaborazione-e-adesioni/Patto-di-collaborazione-A-chiese-aperte-nella-citta-del-Concilio-un-ponte-sospeso-tra-cultura-e-spiritualita" }, "geometry": { "type": "Point", "coordinates": [ 662642.899045110680163, 5104918.561717011965811 ] } },
{ "type": "Feature", "properties": { "id": 85, "descr": "My CITY", "fumetto": "My CITY", "link": "https://www.comune.trento.it/Aree-tematiche/Beni-comuni/Patti-di-collaborazione-e-adesioni/Patto-di-Collaborazione-MyCity" }, "geometry": { "type": "Point", "coordinates": [ 664050.338411252014339, 5103913.400802299380302 ] } },
{ "type": "Feature", "properties": { "id": 88, "descr": "Biblioteca di Montevaccino - Castello di Carta", "fumetto": "Biblioteca di Montevaccino - Castello di Carta", "link": "https://www.comune.trento.it/Aree-tematiche/Beni-comuni/Patti-di-collaborazione-e-adesioni/Patto-di-collaborazione-Biblioteca-di-Montevaccino-Castello-di-Carta" }, "geometry": { "type": "Point", "coordinates": [ 665710.932437842711806, 5108302.073409605771303 ] } },
{ "type": "Feature", "properties": { "id": 89, "descr": "Parco di Collaborazione", "fumetto": "Parco di Collaborazione", "link": "https://www.comune.trento.it/Aree-tematiche/Beni-comuni/Patti-di-collaborazione-e-adesioni/Patto-di-collaborazione-Parco-di-Collaborazione" }, "geometry": { "type": "Point", "coordinates": [ 664456.160802861792035, 5103264.412718599662185 ] } },
{ "type": "Feature", "properties": { "id": 90, "descr": "Un parco per  S. Martino", "fumetto": "Un parco per  S. Martino", "link": "https://www.comune.trento.it/Aree-tematiche/Beni-comuni/Patti-di-collaborazione-e-adesioni/Patto-di-collaborazione-Un-parco-per-San-Martino" }, "geometry": { "type": "Point", "coordinates": [ 664462.914166667032987, 5104314.501041665673256 ] } },
{ "type": "Feature", "properties": { "id": 91, "descr": "Sala Dematte'", "fumetto": "Sala Dematte'", "link": "https://www.comune.trento.it/Aree-tematiche/Beni-comuni/Patti-di-collaborazione-e-adesioni/Patto-di-collaborazione-Sala-Dematte" }, "geometry": { "type": "Point", "coordinates": [ 663070.917014998267405, 5100476.08409000467509 ] } },
{ "type": "Feature", "properties": { "id": 92, "descr": "Rifacimento casetta Piovono Libri in via San Pio X", "fumetto": "Rifacimento casetta Piovono Libri in via San Pio X", "link": "https://www.comune.trento.it/Aree-tematiche/Beni-comuni/Patti-di-collaborazione-e-adesioni/Patto-di-collaborazione-Rifacimento-casetta-Piovono-Libri-in-Via-San-Pio-X" }, "geometry": { "type": "Point", "coordinates": [ 663963.282291611656547, 5102523.371875022538006 ] } }
]
}
