{
"type": "FeatureCollection",
"name": "uffici_postali",
"crs": { "type": "name", "properties": { "name": "urn:ogc:def:crs:EPSG::25832" } },
"features": [
{ "type": "Feature", "properties": { "telefono": "0461-274010", "civico": 43, "cap": 38122.0, "nome_up": "TRENTO 2", "via": 1280, "localita": "TRENTO", "destra": "VIA A. GAZZOLETTI", "fumetto": "Ufficio postale TRENTO 2 - VIA GAZZOLETTI, 43" }, "geometry": { "type": "Point", "coordinates": [ 664157.934735688962974, 5104207.229366060346365 ] } },
{ "type": "Feature", "properties": { "telefono": "0461-810764", "civico": 4, "cap": 38123.0, "nome_up": "POVO", "via": 7380, "localita": "POVO", "destra": "PIAZZA G. MANCI-POVO", "fumetto": "Ufficio postale POVO - PIAZZA MANCI, 4" }, "geometry": { "type": "Point", "coordinates": [ 666584.953676605946384, 5103623.717362659983337 ] } },
{ "type": "Feature", "properties": { "telefono": "0461-921549", "civico": 8, "cap": 38122.0, "nome_up": "TRENTO 9", "via": 2020, "localita": "TRENTO", "destra": "VIA DEI MUREDEI", "fumetto": "Ufficio postale TRENTO 9 - VIA MUREDEI, 8" }, "geometry": { "type": "Point", "coordinates": [ 663828.359545537969097, 5102552.827421570196748 ] } },
{ "type": "Feature", "properties": { "telefono": "0461-431949", "civico": 5, "cap": 38121.0, "nome_up": "TRENTO 1", "via": 3506, "localita": "TRENTO", "destra": "VIA G.B. TRENER-GARDOLO", "fumetto": "Ufficio postale TRENTO 1 - VIA G.B. TRENER, 5" }, "geometry": { "type": "Point", "coordinates": [ 663698.784463012125343, 5106816.647028140723705 ] } },
{ "type": "Feature", "properties": { "telefono": "0461-920290", "civico": 24, "cap": 38123.0, "nome_up": "VILLAZZANO", "via": 7240, "localita": "VILLAZZANO", "destra": "VIA DELLA VILLA-VILLAZZANO", "fumetto": "Ufficio postale VILLAZZANO - VIA VILLA, 24" }, "geometry": { "type": "Point", "coordinates": [ 665963.448288616957143, 5101569.259514779783785 ] } },
{ "type": "Feature", "properties": { "telefono": "0461-920236", "civico": 19, "cap": 38123.0, "nome_up": "TRENTO 12", "via": 1760, "localita": "TRENTO", "destra": "VIA A. MARIGHETTO \"ORA\"", "fumetto": "Ufficio postale TRENTO 12 - VIA MARIGHETTO, 19" }, "geometry": { "type": "Point", "coordinates": [ 664943.273863030946814, 5100597.035123540088534 ] } },
{ "type": "Feature", "properties": { "telefono": "0461-380949", "civico": 1, "cap": 38122.0, "nome_up": "TRENTO 3", "via": 3450, "localita": "TRENTO", "destra": "V.LE VERONA", "fumetto": "Ufficio postale TRENTO 3 - VIALE VERONA, 1" }, "geometry": { "type": "Point", "coordinates": [ 664558.2365570620168, 5102771.964171590283513 ] } },
{ "type": "Feature", "properties": { "telefono": "0461-237937", "civico": 14, "cap": 38122.0, "nome_up": "MOTORIZZAZIONE", "via": 2850, "localita": "TRENTO", "destra": "LUNGADIGE SAN NICOLO'", "fumetto": "Ufficio postale MOTORIZZAZIONE - VIA LUNGO ADIGE S.NICOLO', 14" }, "geometry": { "type": "Point", "coordinates": [ 663383.551180504960939, 5103695.242165950126946 ] } },
{ "type": "Feature", "properties": { "telefono": "0461-984443", "civico": 4, "cap": 38121.0, "nome_up": "COGNOLA", "via": 6400, "localita": "COGNOLA", "destra": "VIA ALLA VEDUTA-COGNOLA", "fumetto": "Ufficio postale COGNOLA - VIA ALLA VEDUTA, 4" }, "geometry": { "type": "Point", "coordinates": [ 665807.531467252178118, 5104692.336882051080465 ] } },
{ "type": "Feature", "properties": { "telefono": "0461-923323", "civico": 5, "cap": 38123.0, "nome_up": "RAVINA", "via": 8730, "localita": "RAVINA", "destra": "VIA BERLINA-RAVINA", "fumetto": "Ufficio postale RAVINA - VIA BERLINA, 5" }, "geometry": { "type": "Point", "coordinates": [ 663200.685324087971821, 5100609.019954100251198 ] } },
{ "type": "Feature", "properties": { "telefono": "0461-275311", "civico": 20, "cap": 38122.0, "nome_up": "TRENTO CENTRO", "via": 530, "localita": "TRENTO", "destra": "VIA CALEPINA", "fumetto": "Ufficio postale TRENTO CENTRO - PIAZZA A. VITTORIA, 20" }, "geometry": { "type": "Point", "coordinates": [ 664248.820981458993629, 5103677.149323560297489 ] } },
{ "type": "Feature", "properties": { "telefono": "0461-823489", "civico": 53, "cap": 38122.0, "nome_up": "TRENTO 4", "via": 3080, "localita": "TRENTO", "destra": "VIA G.A. SCOPOLI", "fumetto": "Ufficio postale TRENTO 4 - VIA SCOPOLI, 53" }, "geometry": { "type": "Point", "coordinates": [ 663799.770638489979319, 5104628.494093949906528 ] } },
{ "type": "Feature", "properties": { "telefono": "0461-910304", "civico": 31, "cap": 38123.0, "nome_up": "TRENTO 6", "via": 900, "localita": "TRENTO", "destra": "VIA A. DEGASPERI", "fumetto": "Ufficio postale TRENTO 6 - VIA DEGASPERI, 31" }, "geometry": { "type": "Point", "coordinates": [ 664384.538956578006037, 5101785.795021019876003 ] } },
{ "type": "Feature", "properties": { "telefono": "0461-820050", "civico": 2, "cap": 38121.0, "nome_up": "MARTIGNANO", "via": 6020, "localita": "MARTIGNANO", "destra": "VIA BELLAVISTA-MARTIGNANO", "fumetto": "Ufficio postale MARTIGNANO - VIA BELLAVISTA, 2" }, "geometry": { "type": "Point", "coordinates": [ 664686.346331808017567, 5106072.655509860254824 ] } },
{ "type": "Feature", "properties": { "telefono": "0461-866133", "civico": 16, "cap": 38123.0, "nome_up": "SOPRAMONTE", "via": 8055, "localita": "SOPRAMONTE", "destra": "VIA DI VEGIARA-SOPRAMONTE", "fumetto": "Ufficio postale SOPRAMONTE - VIA DI  VEGIARA, 16" }, "geometry": { "type": "Point", "coordinates": [ 659309.33972027420532, 5104073.000383160077035 ] } },
{ "type": "Feature", "properties": { "telefono": "0461-960081", "civico": 7, "cap": 38121.0, "nome_up": "GARDOLO", "via": 5500, "localita": "GARDOLO", "destra": "PIAZZA DELLA LIBERTA'-GARDOLO", "fumetto": "Ufficio postale GARDOLO - PIAZZA LIBERTA', 1" }, "geometry": { "type": "Point", "coordinates": [ 663164.617947514052503, 5108293.487954339943826 ] } },
{ "type": "Feature", "properties": { "telefono": "0461-945361", "civico": 4, "cap": 38123.0, "nome_up": "MATTARELLO", "via": 7730, "localita": "MATTARELLO", "destra": "VIA G. POLI", "fumetto": "Ufficio postale MATTARELLO - VIA G. POLI, 4" }, "geometry": { "type": "Point", "coordinates": [ 664767.504621977102943, 5096930.355334318242967 ] } }
]
}
